{
"type": "FeatureCollection",
"name": "vuelo",
"crs": { "type": "name", "properties": { "name": "urn:ogc:def:crs:OGC:1.3:CRS84" } },
"features": [
{ "type": "Feature", "properties": { "nombre": "Ruta de vuelo AER", "waypoints": 249 }, "geometry": { "type": "LineString", "coordinates": [ [ -76.946427366080997, -12.07826428215763 ], [ -76.946418477288915, -12.0782620137098 ], [ -76.946390580171411, -12.078254894237832 ], [ -76.946362683053906, -12.078247774765863 ], [ -76.946334785936401, -12.078240655293895 ], [ -76.946306888818881, -12.078233535821926 ], [ -76.946278991701377, -12.078226416349958 ], [ -76.946251094583872, -12.07821929687799 ], [ -76.946223197466367, -12.078212177406021 ], [ -76.946195300348862, -12.078205057934053 ], [ -76.946167403231357, -12.078197938462084 ], [ -76.946139506113852, -12.078190818990116 ], [ -76.946111608996347, -12.078183699518148 ], [ -76.946083711878828, -12.078176580046179 ], [ -76.946055814761323, -12.078169460574211 ], [ -76.946027917643818, -12.078162341102242 ], [ -76.946000020526313, -12.078155221630274 ], [ -76.945972123408808, -12.078148102158305 ], [ -76.945944226291303, -12.078140982686337 ], [ -76.945916329173798, -12.078133863214369 ], [ -76.945888432056293, -12.0781267437424 ], [ -76.945860534938774, -12.078119624270432 ], [ -76.945832637821269, -12.078112504798463 ], [ -76.945804740703764, -12.078105385326495 ], [ -76.945776843586259, -12.078098265854528 ], [ -76.945748946468754, -12.07809114638256 ], [ -76.945740057682499, -12.078088877934448 ], [ -76.94572929709048, -12.078124981874483 ], [ -76.945738185872017, -12.078127250344791 ], [ -76.945766082989522, -12.078134369816759 ], [ -76.945793980107027, -12.078141489288727 ], [ -76.945821877224532, -12.078148608760696 ], [ -76.945849774342037, -12.078155728232664 ], [ -76.945877671459542, -12.078162847704633 ], [ -76.945905568577061, -12.078169967176601 ], [ -76.945933465694566, -12.078177086648569 ], [ -76.945961362812071, -12.078184206120538 ], [ -76.945989259929576, -12.078191325592506 ], [ -76.946017157047081, -12.078198445064475 ], [ -76.946045054164586, -12.078205564536443 ], [ -76.94607295128209, -12.078212684008411 ], [ -76.946100848399595, -12.07821980348038 ], [ -76.946128745517115, -12.078226922952348 ], [ -76.94615664263462, -12.078234042424317 ], [ -76.946184539752124, -12.078241161896285 ], [ -76.946212436869629, -12.078248281368253 ], [ -76.946240333987134, -12.078255400840222 ], [ -76.946268231104639, -12.07826252031219 ], [ -76.946296128222144, -12.078269639784159 ], [ -76.946324025339649, -12.078276759256127 ], [ -76.946351922457154, -12.078283878728094 ], [ -76.946379819574673, -12.078290998200062 ], [ -76.946407716692178, -12.078298117672031 ], [ -76.946416605479527, -12.078300386142052 ], [ -76.946405844889796, -12.07833649008257 ], [ -76.946396956095441, -12.078334221634263 ], [ -76.946369058977922, -12.078327102162294 ], [ -76.946341161860417, -12.078319982690326 ], [ -76.946313264742912, -12.078312863218358 ], [ -76.946285367625407, -12.078305743746389 ], [ -76.946257470507902, -12.078298624274421 ], [ -76.946229573390397, -12.078291504802452 ], [ -76.946201676272892, -12.078284385330484 ], [ -76.946173779155387, -12.078277265858516 ], [ -76.946145882037868, -12.078270146386547 ], [ -76.946117984920363, -12.078263026914579 ], [ -76.946090087802858, -12.07825590744261 ], [ -76.946062190685353, -12.078248787970642 ], [ -76.946034293567848, -12.078241668498675 ], [ -76.946006396450343, -12.078234549026707 ], [ -76.945978499332838, -12.078227429554738 ], [ -76.945950602215333, -12.07822031008277 ], [ -76.945922705097814, -12.078213190610802 ], [ -76.945894807980309, -12.078206071138833 ], [ -76.945866910862804, -12.078198951666865 ], [ -76.945839013745299, -12.078191832194896 ], [ -76.945811116627794, -12.078184712722928 ], [ -76.94578321951029, -12.07817759325096 ], [ -76.945755322392785, -12.078170473778991 ], [ -76.94572742527528, -12.078163354307023 ], [ -76.945718536486766, -12.078161085858431 ], [ -76.945693827336157, -12.078193630062295 ], [ -76.945702716119783, -12.07819589853327 ], [ -76.945730613237288, -12.078203018005238 ], [ -76.945758510354793, -12.078210137477207 ], [ -76.945786407472298, -12.078217256949175 ], [ -76.945814304589803, -12.078224376421144 ], [ -76.945842201707322, -12.078231495893112 ], [ -76.945870098824827, -12.07823861536508 ], [ -76.945897995942332, -12.078245734837049 ], [ -76.945925893059837, -12.078252854309017 ], [ -76.945953790177342, -12.078259973780986 ], [ -76.945981687294847, -12.078267093252954 ], [ -76.946009584412352, -12.078274212724923 ], [ -76.946037481529856, -12.078281332196891 ], [ -76.946065378647361, -12.078288451668859 ], [ -76.946093275764881, -12.078295571140828 ], [ -76.946121172882386, -12.078302690612796 ], [ -76.94614906999989, -12.078309810084765 ], [ -76.946176967117395, -12.078316929556731 ], [ -76.9462048642349, -12.0783240490287 ], [ -76.946232761352405, -12.078331168500668 ], [ -76.94626065846991, -12.078338287972636 ], [ -76.946288555587415, -12.078345407444605 ], [ -76.946316452704934, -12.078352526916573 ], [ -76.946344349822439, -12.078359646388542 ], [ -76.946372246939944, -12.07836676586051 ], [ -76.946400144057449, -12.078373885332478 ], [ -76.946409032847143, -12.07837615380317 ], [ -76.946398272257454, -12.078412257743494 ], [ -76.946389383460712, -12.078409989294711 ], [ -76.946361486343207, -12.078402869822742 ], [ -76.946333589225688, -12.078395750350774 ], [ -76.946305692108183, -12.078388630878806 ], [ -76.946277794990678, -12.078381511406837 ], [ -76.946249897873173, -12.078374391934869 ], [ -76.946222000755668, -12.0783672724629 ], [ -76.946194103638163, -12.078360152990932 ], [ -76.946166206520658, -12.078353033518963 ], [ -76.946138309403153, -12.078345914046995 ], [ -76.946110412285648, -12.078338794575027 ], [ -76.946082515168129, -12.078331675103058 ], [ -76.946054618050624, -12.07832455563109 ], [ -76.946026720933119, -12.078317436159121 ], [ -76.945998823815614, -12.078310316687153 ], [ -76.945970926698109, -12.078303197215185 ], [ -76.945943029580604, -12.078296077743216 ], [ -76.945915132463099, -12.078288958271248 ], [ -76.945887235345594, -12.078281838799279 ], [ -76.945859338228075, -12.078274719327313 ], [ -76.94583144111057, -12.078267599855344 ], [ -76.945803543993065, -12.078260480383376 ], [ -76.94577564687556, -12.078253360911408 ], [ -76.945747749758056, -12.078246241439439 ], [ -76.945719852640551, -12.078239121967471 ], [ -76.945691955523046, -12.078232002495502 ], [ -76.945683066732371, -12.078229734046433 ], [ -76.945672306140452, -12.078265837986091 ], [ -76.945681194926308, -12.078268106457733 ], [ -76.945709092043813, -12.078275225929701 ], [ -76.945736989161318, -12.07828234540167 ], [ -76.945764886278823, -12.078289464873638 ], [ -76.945792783396328, -12.078296584345606 ], [ -76.945820680513833, -12.078303703817575 ], [ -76.945848577631338, -12.078310823289543 ], [ -76.945876474748843, -12.078317942761512 ], [ -76.945904371866362, -12.07832506223348 ], [ -76.945932268983867, -12.078332181705449 ], [ -76.945960166101372, -12.078339301177417 ], [ -76.945988063218877, -12.078346420649385 ], [ -76.946015960336382, -12.078353540121354 ], [ -76.946043857453887, -12.078360659593322 ], [ -76.946071754571392, -12.078367779065291 ], [ -76.946099651688897, -12.078374898537259 ], [ -76.946127548806402, -12.078382018009227 ], [ -76.946155445923921, -12.078389137481196 ], [ -76.946183343041426, -12.078396256953164 ], [ -76.946211240158931, -12.078403376425133 ], [ -76.946239137276436, -12.078410495897101 ], [ -76.946267034393941, -12.078417615369069 ], [ -76.946294931511446, -12.078424734841038 ], [ -76.946322828628951, -12.078431854313006 ], [ -76.946350725746456, -12.078438973784975 ], [ -76.946378622863975, -12.078446093256943 ], [ -76.946387511655871, -12.078448361728299 ], [ -76.946376751066225, -12.078484465668437 ], [ -76.946367862267223, -12.078482197219174 ], [ -76.946339965149718, -12.078475077747205 ], [ -76.946312068032213, -12.078467958275237 ], [ -76.946284170914709, -12.078460838803268 ], [ -76.946256273797204, -12.0784537193313 ], [ -76.946228376679699, -12.078446599859332 ], [ -76.946200479562194, -12.078439480387363 ], [ -76.946172582444689, -12.078432360915395 ], [ -76.94614468532717, -12.078425241443426 ], [ -76.946116788209665, -12.07841812197146 ], [ -76.94608889109216, -12.078411002499491 ], [ -76.946060993974655, -12.078403883027523 ], [ -76.94603309685715, -12.078396763555554 ], [ -76.946005199739645, -12.078389644083586 ], [ -76.94597730262214, -12.078382524611618 ], [ -76.945949405504635, -12.078375405139649 ], [ -76.945921508387116, -12.078368285667681 ], [ -76.945893611269611, -12.078361166195712 ], [ -76.945865714152106, -12.078354046723744 ], [ -76.945837817034601, -12.078346927251776 ], [ -76.945809919917096, -12.078339807779807 ], [ -76.945782022799591, -12.078332688307839 ], [ -76.945754125682086, -12.07832556883587 ], [ -76.945726228564581, -12.078318449363902 ], [ -76.945698331447062, -12.078311329891934 ], [ -76.945670434329557, -12.078304210419965 ], [ -76.945661545536609, -12.078301941970416 ], [ -76.945650784944746, -12.078338045909888 ], [ -76.94565967373282, -12.078340314382197 ], [ -76.945687570850325, -12.078347433854166 ], [ -76.94571546796783, -12.078354553326134 ], [ -76.945743365085349, -12.078361672798103 ], [ -76.945771262202854, -12.078368792270071 ], [ -76.945799159320359, -12.07837591174204 ], [ -76.945827056437864, -12.078383031214008 ], [ -76.945854953555369, -12.078390150685975 ], [ -76.945882850672874, -12.078397270157943 ], [ -76.945910747790379, -12.078404389629911 ], [ -76.945938644907883, -12.07841150910188 ], [ -76.945966542025403, -12.078418628573848 ], [ -76.945994439142908, -12.078425748045817 ], [ -76.946022336260413, -12.078432867517785 ], [ -76.946050233377917, -12.078439986989753 ], [ -76.946078130495422, -12.078447106461722 ], [ -76.946106027612927, -12.07845422593369 ], [ -76.946133924730432, -12.078461345405659 ], [ -76.946161821847937, -12.078468464877627 ], [ -76.946189718965442, -12.078475584349595 ], [ -76.946217616082961, -12.078482703821564 ], [ -76.946245513200466, -12.078489823293532 ], [ -76.946273410317971, -12.078496942765501 ], [ -76.946301307435476, -12.078504062237469 ], [ -76.946329204552981, -12.078511181709437 ], [ -76.946357101670486, -12.078518301181406 ], [ -76.946365990464614, -12.078520569653429 ], [ -76.946355229875024, -12.078556673593379 ], [ -76.946346341073749, -12.078554405143638 ], [ -76.946318443956244, -12.07854728567167 ], [ -76.946290546838739, -12.078540166199701 ], [ -76.946262649721234, -12.078533046727733 ], [ -76.946234752603729, -12.078525927255765 ], [ -76.94620685548621, -12.078518807783796 ], [ -76.946178958368705, -12.078511688311828 ], [ -76.9461510612512, -12.078504568839859 ], [ -76.946123164133695, -12.078497449367891 ], [ -76.94609526701619, -12.078490329895923 ], [ -76.946067369898685, -12.078483210423954 ], [ -76.94603947278118, -12.078476090951986 ], [ -76.946011575663675, -12.078468971480017 ], [ -76.945983678546156, -12.078461852008049 ], [ -76.945955781428651, -12.07845473253608 ], [ -76.945927884311146, -12.078447613064112 ], [ -76.945899987193641, -12.078440493592144 ], [ -76.945872090076136, -12.078433374120175 ], [ -76.945844192958631, -12.078426254648207 ], [ -76.945816295841126, -12.078419135176238 ], [ -76.945788398723622, -12.07841201570427 ], [ -76.945760501606102, -12.078404896232302 ], [ -76.945732604488597, -12.078397776760333 ], [ -76.945704707371092, -12.078390657288365 ], [ -76.945676810253588, -12.078383537816396 ], [ -76.945648913136083, -12.078376418344428 ], [ -76.945640024340875, -12.078374149894405 ] ] } }
]
}
