{"type": "FeatureCollection", "features": [{"type": "Feature", "properties": {"filename": "DJI_20260825141717_0059_D.JPG", "camera": "v2 dji fc9589 8064 6048 brown 0.6666", "focal": 0.6634616168606359, "width": 8064, "height": 6048, "capture_time": 1787667437.0, "translation": [288170.94085594395, 8664021.927604394, 288.60915782732746], "rotation": [-2.525173186662999, 1.8441682805613184, 0.005568850967172682]}, "geometry": {"type": "Point", "coordinates": [-76.9461220532984, -12.078418975636017, 288.60915782732746]}}, {"type": "Feature", "properties": {"filename": "DJI_20260825141106_0021_D.JPG", "camera": "v2 dji fc9589 8064 6048 brown 0.6666", "focal": 0.6634616168606359, "width": 8064, "height": 6048, "capture_time": 1787667066.0, "translation": [288144.60294872586, 8664036.385090917, 289.02241320240216], "rotation": [-2.5157151511037488, 1.8557391182323524, 0.035588975603580285]}, "geometry": {"type": "Point", "coordinates": [-76.94636298381742, -12.078286614967372, 289.02241320240216]}}, {"type": "Feature", "properties": {"filename": "DJI_20260825141826_0067_D.JPG", "camera": "v2 dji fc9589 8064 6048 brown 0.6666", "focal": 0.6634616168606359, "width": 8064, "height": 6048, "capture_time": 1787667506.0, "translation": [288207.52794554713, 8664027.712177282, 288.7909606218181], "rotation": [2.5162217707426717, -1.8782056237375826, 0.031548048570358624]}, "geometry": {"type": "Point", "coordinates": [-76.94578567737216, -12.078369045136899, 288.7909606218181]}}, {"type": "Feature", "properties": {"filename": "DJI_20260825140953_0010_D.JPG", "camera": "v2 dji fc9589 8064 6048 brown 0.6666", "focal": 0.6634616168606359, "width": 8064, "height": 6048, "capture_time": 1787666993.0, "translation": [288212.8006472104, 8664054.276256358, 288.87417345739146], "rotation": [2.5031290463531266, -1.8621487278561693, 0.009686781030906255]}, "geometry": {"type": "Point", "coordinates": [-76.94573552122932, -12.07812929537533, 288.87417345739146]}}, {"type": "Feature", "properties": {"filename": "DJI_20260825141446_0039_D.JPG", "camera": "v2 dji fc9589 8064 6048 brown 0.6666", "focal": 0.6634616168606359, "width": 8064, "height": 6048, "capture_time": 1787667286.0, "translation": [288185.97409626475, 8664034.458047258, 288.440724829927], "rotation": [-2.5345375829602275, 1.855349670528426, -0.0024165959628813225]}, "geometry": {"type": "Point", "coordinates": [-76.945983177103, -12.07830669042884, 288.440724829927]}}, {"type": "Feature", "properties": {"filename": "DJI_20260825141528_0045_D.JPG", "camera": "v2 dji fc9589 8064 6048 brown 0.6666", "focal": 0.6634616168606359, "width": 8064, "height": 6048, "capture_time": 1787667328.0, "translation": [288213.776552923, 8664037.789985985, 289.20131754736246], "rotation": [2.523492557362239, -1.8514387793178588, 0.02758083002635451]}, "geometry": {"type": "Point", "coordinates": [-76.94572763525262, -12.078278362471828, 289.20131754736246]}}, {"type": "Feature", "properties": {"filename": "DJI_20260825141040_0017_D.JPG", "camera": "v2 dji fc9589 8064 6048 brown 0.6666", "focal": 0.6634616168606359, "width": 8064, "height": 6048, "capture_time": 1787667040.0, "translation": [288169.91658453055, 8664043.047901418, 288.4288641845388], "rotation": [-2.5242795873722836, 1.8670098686054564, 0.021656240725572685]}, "geometry": {"type": "Point", "coordinates": [-76.94613008062917, -12.078228022714661, 288.4288641845388]}}, {"type": "Feature", "properties": {"filename": "DJI_20260825141130_0022_D.JPG", "camera": "v2 dji fc9589 8064 6048 brown 0.6666", "focal": 0.6634616168606359, "width": 8064, "height": 6048, "capture_time": 1787667090.0, "translation": [288154.1344353849, 8664034.588292673, 288.98691532893776], "rotation": [-2.5233185402767875, 1.8486682832154564, 0.03031683258014763]}, "geometry": {"type": "Point", "coordinates": [-76.94627556861268, -12.078303467162453, 288.98691532893776]}}, {"type": "Feature", "properties": {"filename": "DJI_20260825141059_0020_D.JPG", "camera": "v2 dji fc9589 8064 6048 brown 0.6666", "focal": 0.6634616168606359, "width": 8064, "height": 6048, "capture_time": 1787667059.0, "translation": [288151.16687107057, 8664038.11970936, 288.9703876341978], "rotation": [-2.517998342080677, 1.8555547077097623, 0.036584337204805153]}, "geometry": {"type": "Point", "coordinates": [-76.94630259067284, -12.078271359192833, 288.9703876341978]}}, {"type": "Feature", "properties": {"filename": "DJI_20260825140856_0004_D.JPG", "camera": "v2 dji fc9589 8064 6048 brown 0.6666", "focal": 0.6634616168606359, "width": 8064, "height": 6048, "capture_time": 1787666936.0, "translation": [288159.8983508234, 8664045.025982963, 288.5669729292335], "rotation": [-2.517407161327885, 1.871267338619183, 0.03711629548885998]}, "geometry": {"type": "Point", "coordinates": [-76.94622195403609, -12.078209500832507, 288.5669729292335]}}, {"type": "Feature", "properties": {"filename": "DJI_20260825140850_0003_D.JPG", "camera": "v2 dji fc9589 8064 6048 brown 0.6666", "focal": 0.6634616168606359, "width": 8064, "height": 6048, "capture_time": 1787666930.0, "translation": [288152.9284492898, 8664043.146574883, 288.3614850119956], "rotation": [-2.5138344541225655, 1.8662315588569538, 0.040136069352000585]}, "geometry": {"type": "Point", "coordinates": [-76.94628608493406, -12.078226039157666, 288.3614850119956]}}, {"type": "Feature", "properties": {"filename": "DJI_20260825141206_0025_D.JPG", "camera": "v2 dji fc9589 8064 6048 brown 0.6666", "focal": 0.6634616168606359, "width": 8064, "height": 6048, "capture_time": 1787667126.0, "translation": [288189.5767207587, 8664044.251767974, 288.3267799840572], "rotation": [2.523440637891196, -1.861925825142557, 0.00206713581141772]}, "geometry": {"type": "Point", "coordinates": [-76.94594945290751, -12.07821840540572, 288.3267799840572]}}, {"type": "Feature", "properties": {"filename": "DJI_20260825141346_0035_D.JPG", "camera": "v2 dji fc9589 8064 6048 brown 0.6666", "focal": 0.6634616168606359, "width": 8064, "height": 6048, "capture_time": 1787667226.0, "translation": [288150.76593241136, 8664028.817439571, 289.0055911316393], "rotation": [-2.526477460831543, 1.8345450345098124, 0.029928960819070333]}, "geometry": {"type": "Point", "coordinates": [-76.94630688016005, -12.078355408147456, 289.0055911316393]}}, {"type": "Feature", "properties": {"filename": "DJI_20260825141006_0012_D.JPG", "camera": "v2 dji fc9589 8064 6048 brown 0.6666", "focal": 0.6634616168606359, "width": 8064, "height": 6048, "capture_time": 1787667006.0, "translation": [288200.5024530349, 8664050.770127913, 288.31646991056624], "rotation": [2.506152843686776, -1.8662420478041963, 0.003172747727022525]}, "geometry": {"type": "Point", "coordinates": [-76.94584869073503, -12.078160193913087, 288.31646991056624]}}, {"type": "Feature", "properties": {"filename": "DJI_20260825141235_0027_D.JPG", "camera": "v2 dji fc9589 8064 6048 brown 0.6666", "focal": 0.6634616168606359, "width": 8064, "height": 6048, "capture_time": 1787667155.0, "translation": [288215.79041352577, 8664046.604206152, 289.05743977027424], "rotation": [2.507475137280889, -1.8570146332395066, 0.020572943531409996]}, "geometry": {"type": "Point", "coordinates": [-76.94570856551968, -12.078198828143806, 289.05743977027424]}}, {"type": "Feature", "properties": {"filename": "DJI_20260825141521_0044_D.JPG", "camera": "v2 dji fc9589 8064 6048 brown 0.6666", "focal": 0.6634616168606359, "width": 8064, "height": 6048, "capture_time": 1787667321.0, "translation": [288220.13467611215, 8664040.568582213, 289.2561679048577], "rotation": [2.518533087302267, -1.8507286548040662, 0.03183901225949131]}, "geometry": {"type": "Point", "coordinates": [-76.94566906393226, -12.078253657765883, 289.2561679048577]}}, {"type": "Feature", "properties": {"filename": "DJI_20260825141309_0032_D.JPG", "camera": "v2 dji fc9589 8064 6048 brown 0.6666", "focal": 0.6634616168606359, "width": 8064, "height": 6048, "capture_time": 1787667189.0, "translation": [288184.57423962903, 8664038.25211537, 288.38861652058415], "rotation": [2.5292851392257623, -1.860487128998154, -0.003028482958914141]}, "geometry": {"type": "Point", "coordinates": [-76.94599578498685, -12.078272309353457, 288.38861652058415]}}, {"type": "Feature", "properties": {"filename": "DJI_20260825141046_0018_D.JPG", "camera": "v2 dji fc9589 8064 6048 brown 0.6666", "focal": 0.6634616168606359, "width": 8064, "height": 6048, "capture_time": 1787667046.0, "translation": [288163.8598811998, 8664041.44170893, 288.5531503783285], "rotation": [-2.523418647887958, 1.8620272794850647, 0.0263444002667276]}, "geometry": {"type": "Point", "coordinates": [-76.94618580732148, -12.07824215040071, 288.5531503783285]}}, {"type": "Feature", "properties": {"filename": "DJI_20260825141805_0064_D.JPG", "camera": "v2 dji fc9589 8064 6048 brown 0.6666", "focal": 0.6634616168606359, "width": 8064, "height": 6048, "capture_time": 1787667485.0, "translation": [288218.91316769295, 8664034.979299821, 289.1738571960382], "rotation": [2.5165104559808746, -1.861494209649275, 0.03085823023573569]}, "geometry": {"type": "Point", "coordinates": [-76.9456806465503, -12.078304095725985, 289.1738571960382]}}, {"type": "Feature", "properties": {"filename": "DJI_20260825141541_0047_D.JPG", "camera": "v2 dji fc9589 8064 6048 brown 0.6666", "focal": 0.6634616168606359, "width": 8064, "height": 6048, "capture_time": 1787667341.0, "translation": [288201.19455465063, 8664034.244956827, 288.7654565725283], "rotation": [2.530685299177356, -1.8531755523478473, 0.019260348667997203]}, "geometry": {"type": "Point", "coordinates": [-76.9458434136828, -12.078309594355833, 288.7654565725283]}}, {"type": "Feature", "properties": {"filename": "DJI_20260825141710_0058_D.JPG", "camera": "v2 dji fc9589 8064 6048 brown 0.6666", "focal": 0.6634616168606359, "width": 8064, "height": 6048, "capture_time": 1787667430.0, "translation": [288164.41123173677, 8664020.145344887, 288.6742078846835], "rotation": [-2.523137963811948, 1.8382931642214784, 0.013113461803270927]}, "geometry": {"type": "Point", "coordinates": [-76.94618213460672, -12.078434664234402, 288.6742078846835]}}, {"type": "Feature", "properties": {"filename": "DJI_20260825141020_0014_D.JPG", "camera": "v2 dji fc9589 8064 6048 brown 0.6666", "focal": 0.6634616168606359, "width": 8064, "height": 6048, "capture_time": 1787667020.0, "translation": [288187.97015449527, 8664047.563587856, 288.2734512848402], "rotation": [2.5147806268622133, -1.8672455014564195, -0.00807211128255797]}, "geometry": {"type": "Point", "coordinates": [-76.94596399060006, -12.07818836965155, 288.2734512848402]}}, {"type": "Feature", "properties": {"filename": "DJI_20260825141656_0056_D.JPG", "camera": "v2 dji fc9589 8064 6048 brown 0.6666", "focal": 0.6634616168606359, "width": 8064, "height": 6048, "capture_time": 1787667416.0, "translation": [288151.1925014759, 8664016.418449132, 288.9387693102028], "rotation": [-2.5219657462521776, 1.8282853718545322, 0.022546776249017457]}, "geometry": {"type": "Point", "coordinates": [-76.94630377244705, -12.078467498714245, 288.9387693102028]}}, {"type": "Feature", "properties": {"filename": "DJI_20260825141256_0030_D.JPG", "camera": "v2 dji fc9589 8064 6048 brown 0.6666", "focal": 0.6634616168606359, "width": 8064, "height": 6048, "capture_time": 1787667176.0, "translation": [288196.87326152367, 8664041.57696463, 288.55224799279404], "rotation": [2.5213474455486566, -1.8598184120288743, 0.006006266898394752]}, "geometry": {"type": "Point", "coordinates": [-76.94588261965855, -12.0782430493563, 288.55224799279404]}}, {"type": "Feature", "properties": {"filename": "DJI_20260825141730_0061_D.JPG", "camera": "v2 dji fc9589 8064 6048 brown 0.6666", "focal": 0.6634616168606359, "width": 8064, "height": 6048, "capture_time": 1787667450.0, "translation": [288183.7363005533, 8664025.545315102, 288.29065634527336], "rotation": [-2.532273795323068, 1.8546220958222426, -0.0038947299167098564]}, "geometry": {"type": "Point", "coordinates": [-76.9460043098712, -12.078387100694066, 288.29065634527336]}}, {"type": "Feature", "properties": {"filename": "DJI_20260825141535_0046_D.JPG", "camera": "v2 dji fc9589 8064 6048 brown 0.6666", "focal": 0.6634616168606359, "width": 8064, "height": 6048, "capture_time": 1787667335.0, "translation": [288207.4993787657, 8664035.973081967, 288.9750356425926], "rotation": [2.5282318875390404, -1.851428342271721, 0.023406819248574656]}, "geometry": {"type": "Point", "coordinates": [-76.94578540040128, -12.078294380504383, 288.9750356425926]}}, {"type": "Feature", "properties": {"filename": "DJI_20260825141249_0029_D.JPG", "camera": "v2 dji fc9589 8064 6048 brown 0.6666", "focal": 0.6634616168606359, "width": 8064, "height": 6048, "capture_time": 1787667169.0, "translation": [288203.30769191065, 8664043.213563006, 288.69172260511306], "rotation": [2.516898389617115, -1.8600907824858959, 0.009352520365080911]}, "geometry": {"type": "Point", "coordinates": [-76.94582342212539, -12.078228671065654, 288.69172260511306]}}, {"type": "Feature", "properties": {"filename": "DJI_20260825141620_0053_D.JPG", "camera": "v2 dji fc9589 8064 6048 brown 0.6666", "focal": 0.6634616168606359, "width": 8064, "height": 6048, "capture_time": 1787667380.0, "translation": [288165.8234867193, 8664024.366618175, 288.7407756662368], "rotation": [-2.5271475510966566, 1.8403717372408757, 0.010854133240402025]}, "geometry": {"type": "Point", "coordinates": [-76.94616888949277, -12.078396602755157, 288.7407756662368]}}, {"type": "Feature", "properties": {"filename": "DJI_20260825141033_0016_D.JPG", "camera": "v2 dji fc9589 8064 6048 brown 0.6666", "focal": 0.6634616168606359, "width": 8064, "height": 6048, "capture_time": 1787667033.0, "translation": [288175.9422901331, 8664044.61163499, 288.4493015234317], "rotation": [2.52248444735391, -1.8688749887740572, -0.016620565849452307]}, "geometry": {"type": "Point", "coordinates": [-76.94607464138141, -12.078214276772034, 288.4493015234317]}}, {"type": "Feature", "properties": {"filename": "DJI_20260825142131_0083_D.JPG", "camera": "v2 dji fc9589 8064 6048 brown 0.6666", "focal": 0.6634616168606359, "width": 8064, "height": 6048, "capture_time": 1787667691.0, "translation": [288223.4030344734, 8664027.249828385, 221.71528413950492], "rotation": [-2.4574676785386127, 1.4213939764603285, 0.5812969580890702]}, "geometry": {"type": "Point", "coordinates": [-76.94563991836067, -12.078374243848332, 221.71528413950492]}}, {"type": "Feature", "properties": {"filename": "DJI_20260825142012_0078_D.JPG", "camera": "v2 dji fc9589 8064 6048 brown 0.6666", "focal": 0.6634616168606359, "width": 8064, "height": 6048, "capture_time": 1787667612.0, "translation": [288180.0911515949, 8664016.085753048, 288.3451046522957], "rotation": [-2.510715693900113, 1.866854304371146, -0.007031868154701957]}, "geometry": {"type": "Point", "coordinates": [-76.94603840281918, -12.07847236281541, 288.3451046522957]}}, {"type": "Feature", "properties": {"filename": "DJI_20260825141554_0049_D.JPG", "camera": "v2 dji fc9589 8064 6048 brown 0.6666", "focal": 0.6634616168606359, "width": 8064, "height": 6048, "capture_time": 1787667354.0, "translation": [288189.39367375866, 8664030.999150455, 288.5782182244155], "rotation": [-2.5340417399168556, 1.8533714468790137, -0.008660557496685314]}, "geometry": {"type": "Point", "coordinates": [-76.94595199919112, -12.078338171977553, 288.5782182244155]}}, {"type": "Feature", "properties": {"filename": "DJI_20260825142042_0080_D.JPG", "camera": "v2 dji fc9589 8064 6048 brown 0.6666", "focal": 0.6634616168606359, "width": 8064, "height": 6048, "capture_time": 1787667642.0, "translation": [288210.132517049, 8664023.996411389, 288.8168639882714], "rotation": [2.517532085486042, -1.8731408551851034, 0.030065611720042656]}, "geometry": {"type": "Point", "coordinates": [-76.94576200082157, -12.07840279590911, 288.8168639882714]}}, {"type": "Feature", "properties": {"filename": "DJI_20260825141819_0066_D.JPG", "camera": "v2 dji fc9589 8064 6048 brown 0.6666", "focal": 0.6634616168606359, "width": 8064, "height": 6048, "capture_time": 1787667499.0, "translation": [288213.81817350065, 8664029.123550314, 288.97888844369203], "rotation": [2.5140111146693727, -1.8733848953275398, 0.034505994924445]}, "geometry": {"type": "Point", "coordinates": [-76.94572781880142, -12.078356693171171, 288.97888844369203]}}, {"type": "Feature", "properties": {"filename": "DJI_20260825140910_0006_D.JPG", "camera": "v2 dji fc9589 8064 6048 brown 0.6666", "focal": 0.6634616168606359, "width": 8064, "height": 6048, "capture_time": 1787666950.0, "translation": [288172.5842227288, 8664048.212155186, 288.27545241492413], "rotation": [2.5149804195329106, -1.8719097364129473, -0.027084275862747413]}, "geometry": {"type": "Point", "coordinates": [-76.94610524513881, -12.078181519161722, 288.27545241492413]}}, {"type": "Feature", "properties": {"filename": "DJI_20260825141944_0074_D.JPG", "camera": "v2 dji fc9589 8064 6048 brown 0.6666", "focal": 0.6634616168606359, "width": 8064, "height": 6048, "capture_time": 1787667584.0, "translation": [288153.51646515436, 8664009.259321967, 288.8821246832509], "rotation": [-2.496356613356623, 1.857600509916477, 0.010892544013003248]}, "geometry": {"type": "Point", "coordinates": [-76.94628289779098, -12.078532352885647, 288.8821246832509]}}, {"type": "Feature", "properties": {"filename": "DJI_20260825142005_0077_D.JPG", "camera": "v2 dji fc9589 8064 6048 brown 0.6666", "focal": 0.6634616168606359, "width": 8064, "height": 6048, "capture_time": 1787667605.0, "translation": [288173.39838454843, 8664014.469323985, 288.385041910362], "rotation": [-2.5070786761453627, 1.86448854358624, -0.0036490246381371792]}, "geometry": {"type": "Point", "coordinates": [-76.94609997153556, -12.07848654215665, 288.385041910362]}}, {"type": "Feature", "properties": {"filename": "DJI_20260825141213_0026_D.JPG", "camera": "v2 dji fc9589 8064 6048 brown 0.6666", "focal": 0.6634616168606359, "width": 8064, "height": 6048, "capture_time": 1787667133.0, "translation": [288196.33083179785, 8664045.970892444, 288.49166290658417], "rotation": [2.5185465654278394, -1.8622931741486615, 0.004794040566884314]}, "geometry": {"type": "Point", "coordinates": [-76.94588731419921, -12.078203301791586, 288.49166290658417]}}, {"type": "Feature", "properties": {"filename": "DJI_20260825141500_0041_D.JPG", "camera": "v2 dji fc9589 8064 6048 brown 0.6666", "focal": 0.6634616168606359, "width": 8064, "height": 6048, "capture_time": 1787667300.0, "translation": [288200.130518991, 8664038.13367811, 288.7543590391835], "rotation": [2.5245651190384657, -1.856696788105261, 0.010920279268281879]}, "geometry": {"type": "Point", "coordinates": [-76.94585293138869, -12.078274379377826, 288.7543590391835]}}, {"type": "Feature", "properties": {"filename": "DJI_20260825142137_0084_D.JPG", "camera": "v2 dji fc9589 8064 6048 brown 0.6666", "focal": 0.6634616168606359, "width": 8064, "height": 6048, "capture_time": 1787667697.0, "translation": [288223.46194204973, 8664027.2815074, 221.74855041935513], "rotation": [-2.4818692275504795, 1.4209221289506204, 0.5513239128212115]}, "geometry": {"type": "Point", "coordinates": [-76.94563937531372, -12.078373961315144, 221.74855041935513]}}, {"type": "Feature", "properties": {"filename": "DJI_20260825142110_0082_D.JPG", "camera": "v2 dji fc9589 8064 6048 brown 0.6666", "focal": 0.6634616168606359, "width": 8064, "height": 6048, "capture_time": 1787667670.0, "translation": [288223.4384495784, 8664027.261913154, 221.73750916305437], "rotation": [-2.472640513543059, 1.4134437334372467, 0.5941580443708884]}, "geometry": {"type": "Point", "coordinates": [-76.94563959233642, -12.078374136900402, 221.73750916305437]}}, {"type": "Feature", "properties": {"filename": "DJI_20260825141759_0063_D.JPG", "camera": "v2 dji fc9589 8064 6048 brown 0.6666", "focal": 0.6634616168606359, "width": 8064, "height": 6048, "capture_time": 1787667479.0, "translation": [288212.050115429, 8664033.106534064, 288.9127936407349], "rotation": [2.5217075613629247, -1.8599275185955257, 0.02392269773107419]}, "geometry": {"type": "Point", "coordinates": [-76.94574379577244, -12.078320581008738, 288.9127936407349]}}, {"type": "Feature", "properties": {"filename": "DJI_20260825142103_0081_D.JPG", "camera": "v2 dji fc9589 8064 6048 brown 0.6666", "focal": 0.6634616168606359, "width": 8064, "height": 6048, "capture_time": 1787667663.0, "translation": [288223.4616832043, 8664027.281209605, 221.74843217962285], "rotation": [-2.4816599312152174, 1.403747017203506, 0.5866636130184277]}, "geometry": {"type": "Point", "coordinates": [-76.94563937771026, -12.078373963990023, 221.74843217962285]}}, {"type": "Feature", "properties": {"filename": "DJI_20260825141855_0069_D.JPG", "camera": "v2 dji fc9589 8064 6048 brown 0.6666", "focal": 0.6634616168606359, "width": 8064, "height": 6048, "capture_time": 1787667535.0, "translation": [288179.7335120093, 8664020.320647677, 288.3775585938998], "rotation": [-2.5156909078411664, 1.8678861083827576, -0.005101693336461412]}, "geometry": {"type": "Point", "coordinates": [-76.94604141069505, -12.07843406448222, 288.3775585938998]}}, {"type": "Feature", "properties": {"filename": "DJI_20260825141026_0015_D.JPG", "camera": "v2 dji fc9589 8064 6048 brown 0.6666", "focal": 0.6634616168606359, "width": 8064, "height": 6048, "capture_time": 1787667026.0, "translation": [288181.9057599655, 8664046.170427334, 288.37034756897697], "rotation": [2.5185228783733047, -1.8690458019104832, -0.011163849364788134]}, "geometry": {"type": "Point", "coordinates": [-76.94601977400326, -12.078200571477558, 288.37034756897697]}}, {"type": "Feature", "properties": {"filename": "DJI_20260825140843_0002_D.JPG", "camera": "v2 dji fc9589 8064 6048 brown 0.6666", "focal": 0.6634616168606359, "width": 8064, "height": 6048, "capture_time": 1787666923.0, "translation": [288145.86379694415, 8664041.381848307, 288.31557818737537], "rotation": [-2.511323535692352, 1.8637523087482584, 0.041766342777796214]}, "geometry": {"type": "Point", "coordinates": [-76.94635107849382, -12.078241534875831, 288.31557818737537]}}, {"type": "Feature", "properties": {"filename": "DJI_20260825141453_0040_D.JPG", "camera": "v2 dji fc9589 8064 6048 brown 0.6666", "focal": 0.6634616168606359, "width": 8064, "height": 6048, "capture_time": 1787667293.0, "translation": [288193.08726498514, 8664036.25824798, 288.66254474612714], "rotation": [2.5304326440357547, -1.8566581370398894, 0.006375134470888599]}, "geometry": {"type": "Point", "coordinates": [-76.94591773566746, -12.078290877122805, 288.66254474612714]}}, {"type": "Feature", "properties": {"filename": "DJI_20260825141159_0024_D.JPG", "camera": "v2 dji fc9589 8064 6048 brown 0.6666", "focal": 0.6634616168606359, "width": 8064, "height": 6048, "capture_time": 1787667119.0, "translation": [288183.36389103666, 8664042.534251794, 288.24464034077556], "rotation": [2.529600501901131, -1.8610483650352119, -0.0032342671482843677]}, "geometry": {"type": "Point", "coordinates": [-76.94600662065137, -12.07823352925076, 288.24464034077556]}}, {"type": "Feature", "properties": {"filename": "DJI_20260825141013_0013_D.JPG", "camera": "v2 dji fc9589 8064 6048 brown 0.6666", "focal": 0.6634616168606359, "width": 8064, "height": 6048, "capture_time": 1787667013.0, "translation": [288194.1277495215, 8664049.234993253, 288.15115750858206], "rotation": [2.510783998034192, -1.8681874424815954, -0.0012847961785898466]}, "geometry": {"type": "Point", "coordinates": [-76.94590733312619, -12.078173659000138, 288.15115750858206]}}, {"type": "Feature", "properties": {"filename": "DJI_20260825141902_0070_D.JPG", "camera": "v2 dji fc9589 8064 6048 brown 0.6666", "focal": 0.6634616168606359, "width": 8064, "height": 6048, "capture_time": 1787667542.0, "translation": [288173.4101225188, 8664018.797300324, 288.42791807596006], "rotation": [-2.5120301438595596, 1.8627093414257754, -0.0013856275908271255]}, "geometry": {"type": "Point", "coordinates": [-76.94609958113818, -12.078447426280556, 288.42791807596006]}}, {"type": "Feature", "properties": {"filename": "DJI_20260825141339_0034_D.JPG", "camera": "v2 dji fc9589 8064 6048 brown 0.6666", "focal": 0.6634616168606359, "width": 8064, "height": 6048, "capture_time": 1787667219.0, "translation": [288156.7141539437, 8664030.60094548, 289.18895296255795], "rotation": [-2.5298080631836863, 1.8387160517575352, 0.02504029106095302]}, "geometry": {"type": "Point", "coordinates": [-76.94625213810646, -12.078339670944453, 289.18895296255795]}}, {"type": "Feature", "properties": {"filename": "DJI_20260825140903_0005_D.JPG", "camera": "v2 dji fc9589 8064 6048 brown 0.6666", "focal": 0.6634616168606359, "width": 8064, "height": 6048, "capture_time": 1787666943.0, "translation": [288166.3457996394, 8664046.652255496, 288.3897354280464], "rotation": [2.520128479166414, -1.8739631808072716, -0.03258793424779408]}, "geometry": {"type": "Point", "coordinates": [-76.94616263762329, -12.078195216778242, 288.3897354280464]}}, {"type": "Feature", "properties": {"filename": "DJI_20260825141601_0050_D.JPG", "camera": "v2 dji fc9589 8064 6048 brown 0.6666", "focal": 0.6634616168606359, "width": 8064, "height": 6048, "capture_time": 1787667361.0, "translation": [288183.36891601514, 8664029.307825694, 288.57020763498576], "rotation": [-2.532088745344304, 1.851247011378217, -0.0033860742691180297]}, "geometry": {"type": "Point", "coordinates": [-76.94600743808911, -12.078353071182933, 288.57020763498576]}}, {"type": "Feature", "properties": {"filename": "DJI_20260825140836_0001_D.JPG", "camera": "v2 dji fc9589 8064 6048 brown 0.6666", "focal": 0.6634616168606359, "width": 8064, "height": 6048, "capture_time": 1787666916.0, "translation": [288138.5668515558, 8664039.354740942, 288.2365364154563], "rotation": [-2.510129268265707, 1.864191321950431, 0.03980260808816288]}, "geometry": {"type": "Point", "coordinates": [-76.94641822245981, -12.078259387067966, 288.2365364154563]}}, {"type": "Feature", "properties": {"filename": "DJI_20260825141812_0065_D.JPG", "camera": "v2 dji fc9589 8064 6048 brown 0.6666", "focal": 0.6634616168606359, "width": 8064, "height": 6048, "capture_time": 1787667492.0, "translation": [288220.4812195553, 8664031.158506025, 289.4995538398859], "rotation": [2.5165993387117345, -1.8659082091268953, 0.03977804768484221]}, "geometry": {"type": "Point", "coordinates": [-76.94566649574372, -12.078338729148662, 289.4995538398859]}}, {"type": "Feature", "properties": {"filename": "DJI_20260825141303_0031_D.JPG", "camera": "v2 dji fc9589 8064 6048 brown 0.6666", "focal": 0.6634616168606359, "width": 8064, "height": 6048, "capture_time": 1787667183.0, "translation": [288190.40758799994, 8664039.769873774, 288.3499765334573], "rotation": [2.524534734489287, -1.8595537476604564, 0.000735059588946305]}, "geometry": {"type": "Point", "coordinates": [-76.94594211524942, -12.078258966551969, 288.3499765334573]}}, {"type": "Feature", "properties": {"filename": "DJI_20260825141833_0068_D.JPG", "camera": "v2 dji fc9589 8064 6048 brown 0.6666", "focal": 0.6634616168606359, "width": 8064, "height": 6048, "capture_time": 1787667513.0, "translation": [288201.20804146706, 8664025.971686667, 288.6271475876874], "rotation": [-2.5165795421611974, 1.8792850037907747, -0.0252947742348908]}, "geometry": {"type": "Point", "coordinates": [-76.94584382996491, -12.078384369777073, 288.6271475876874]}}, {"type": "Feature", "properties": {"filename": "DJI_20260825141548_0048_D.JPG", "camera": "v2 dji fc9589 8064 6048 brown 0.6666", "focal": 0.6634616168606359, "width": 8064, "height": 6048, "capture_time": 1787667348.0, "translation": [288195.2827006495, 8664032.64271576, 288.7099155280253], "rotation": [2.533595099145658, -1.8549595489004784, 0.013565757590531318]}, "geometry": {"type": "Point", "coordinates": [-76.94589780990243, -12.078323695693, 288.7099155280253]}}, {"type": "Feature", "properties": {"filename": "DJI_20260825140916_0007_D.JPG", "camera": "v2 dji fc9589 8064 6048 brown 0.6666", "focal": 0.6634616168606359, "width": 8064, "height": 6048, "capture_time": 1787666956.0, "translation": [288179.2679842149, 8664050.089534262, 287.93048514260954], "rotation": [2.511847842180081, -1.8713939876584245, -0.021255914636923244]}, "geometry": {"type": "Point", "coordinates": [-76.94604374215915, -12.078164980742711, 287.93048514260954]}}, {"type": "Feature", "properties": {"filename": "DJI_20260825140946_0009_D.JPG", "camera": "v2 dji fc9589 8064 6048 brown 0.6666", "focal": 0.6634616168606359, "width": 8064, "height": 6048, "capture_time": 1787666986.0, "translation": [288209.5966218068, 8664057.771688655, 288.5019234127604], "rotation": [2.5028417920978656, -1.8577378572503196, 0.0017502475305878824]}, "geometry": {"type": "Point", "coordinates": [-76.94576471724007, -12.078097497488304, 288.5019234127604]}}, {"type": "Feature", "properties": {"filename": "DJI_20260825141752_0062_D.JPG", "camera": "v2 dji fc9589 8064 6048 brown 0.6666", "focal": 0.6634616168606359, "width": 8064, "height": 6048, "capture_time": 1787667472.0, "translation": [288205.8198131496, 8664031.550511038, 288.81653196676376], "rotation": [2.5257449997636443, -1.8594270392511474, 0.020135434933723755]}, "geometry": {"type": "Point", "coordinates": [-76.94580111345044, -12.078334244182185, 288.81653196676376]}}, {"type": "Feature", "properties": {"filename": "DJI_20260825141514_0043_D.JPG", "camera": "v2 dji fc9589 8064 6048 brown 0.6666", "focal": 0.6634616168606359, "width": 8064, "height": 6048, "capture_time": 1787667314.0, "translation": [288213.7558890739, 8664042.057516038, 288.97375721404956], "rotation": [2.5143338975382132, -1.8505664951546295, 0.02534978814291477]}, "geometry": {"type": "Point", "coordinates": [-76.94572754642307, -12.078239790823485, 288.97375721404956]}}, {"type": "Feature", "properties": {"filename": "DJI_20260825141607_0051_D.JPG", "camera": "v2 dji fc9589 8064 6048 brown 0.6666", "focal": 0.6634616168606359, "width": 8064, "height": 6048, "capture_time": 1787667367.0, "translation": [288177.5660914075, 8664027.680770319, 288.4629733586032], "rotation": [-2.530788078165761, 1.8482485663196369, 0.002477559613921362]}, "geometry": {"type": "Point", "coordinates": [-76.94606083466826, -12.07836740376548, 288.4629733586032]}}, {"type": "Feature", "properties": {"filename": "DJI_20260825141723_0060_D.JPG", "camera": "v2 dji fc9589 8064 6048 brown 0.6666", "focal": 0.6634616168606359, "width": 8064, "height": 6048, "capture_time": 1787667443.0, "translation": [288177.2960784238, 8664023.624391003, 288.4273249013033], "rotation": [-2.5283424148561764, 1.8487878458396412, 0.001370906862687979]}, "geometry": {"type": "Point", "coordinates": [-76.94606357919768, -12.078404048327938, 288.4273249013033]}}, {"type": "Feature", "properties": {"filename": "DJI_20260825141703_0057_D.JPG", "camera": "v2 dji fc9589 8064 6048 brown 0.6666", "focal": 0.6634616168606359, "width": 8064, "height": 6048, "capture_time": 1787667423.0, "translation": [288158.01213428786, 8664018.3042906, 288.8627976045493], "rotation": [-2.5213062761607223, 1.8327261668927803, 0.017116395948201687]}, "geometry": {"type": "Point", "coordinates": [-76.94624102106442, -12.078450892599607, 288.8627976045493]}}, {"type": "Feature", "properties": {"filename": "DJI_20260825141649_0055_D.JPG", "camera": "v2 dji fc9589 8064 6048 brown 0.6666", "focal": 0.6634616168606359, "width": 8064, "height": 6048, "capture_time": 1787667409.0, "translation": [288144.3757433536, 8664014.327539004, 289.0705236821203], "rotation": [-2.5194993999342388, 1.8193920022017458, 0.030410345073051456]}, "geometry": {"type": "Point", "coordinates": [-76.94636651082767, -12.078485958426521, 289.0705236821203]}}, {"type": "Feature", "properties": {"filename": "DJI_20260825141332_0033_D.JPG", "camera": "v2 dji fc9589 8064 6048 brown 0.6666", "focal": 0.6634616168606359, "width": 8064, "height": 6048, "capture_time": 1787667212.0, "translation": [288162.9026838118, 8664032.254968598, 289.00359752367166], "rotation": [-2.530352543067985, 1.8455243967614863, 0.02151296766359013]}, "geometry": {"type": "Point", "coordinates": [-76.94619519763745, -12.078325119449827, 289.00359752367166]}}, {"type": "Feature", "properties": {"filename": "DJI_20260825141400_0037_D.JPG", "camera": "v2 dji fc9589 8064 6048 brown 0.6666", "focal": 0.6634616168606359, "width": 8064, "height": 6048, "capture_time": 1787667240.0, "translation": [288140.1641449927, 8664022.602549117, 289.11455357779306], "rotation": [-2.5224279987042593, 1.8204006127171575, 0.04149713621582436]}, "geometry": {"type": "Point", "coordinates": [-76.94640464771327, -12.078410897484027, 289.11455357779306]}}, {"type": "Feature", "properties": {"filename": "DJI_20260825141921_0073_D.JPG", "camera": "v2 dji fc9589 8064 6048 brown 0.6666", "focal": 0.6634616168606359, "width": 8064, "height": 6048, "capture_time": 1787667561.0, "translation": [288155.5734996657, 8664014.09696878, 288.944636929723], "rotation": [-2.504302603030461, 1.852803129709925, 0.013401477412314518]}, "geometry": {"type": "Point", "coordinates": [-76.9462636910597, -12.078488762015594, 288.944636929723]}}, {"type": "Feature", "properties": {"filename": "DJI_20260825141423_0038_D.JPG", "camera": "v2 dji fc9589 8064 6048 brown 0.6666", "focal": 0.6634616168606359, "width": 8064, "height": 6048, "capture_time": 1787667263.0, "translation": [288163.29978346184, 8664028.068512356, 288.84810576164534], "rotation": [-2.52492339800853, 1.8487979316410041, 0.019853023457841713]}, "geometry": {"type": "Point", "coordinates": [-76.94619182423733, -12.078362982526933, 288.84810576164534]}}, {"type": "Feature", "properties": {"filename": "DJI_20260825141353_0036_D.JPG", "camera": "v2 dji fc9589 8064 6048 brown 0.6666", "focal": 0.6634616168606359, "width": 8064, "height": 6048, "capture_time": 1787667233.0, "translation": [288143.9854674801, 8664026.865509499, 288.9611073449268], "rotation": [-2.521193563301489, 1.8300274954523617, 0.0429210276590962]}, "geometry": {"type": "Point", "coordinates": [-76.94636927613824, -12.078372614081989, 288.9611073449268]}}, {"type": "Feature", "properties": {"filename": "DJI_20260825141908_0071_D.JPG", "camera": "v2 dji fc9589 8064 6048 brown 0.6666", "focal": 0.6634616168606359, "width": 8064, "height": 6048, "capture_time": 1787667548.0, "translation": [288167.12015769014, 8664017.136463676, 288.57327616839774], "rotation": [-2.508142349264692, 1.8594926430467822, 0.0028819721426214012]}, "geometry": {"type": "Point", "coordinates": [-76.94615745360704, -12.078462032854109, 288.57327616839774]}}, {"type": "Feature", "properties": {"filename": "DJI_20260825141626_0054_D.JPG", "camera": "v2 dji fc9589 8064 6048 brown 0.6666", "focal": 0.6634616168606359, "width": 8064, "height": 6048, "capture_time": 1787667386.0, "translation": [288160.08818355616, 8664022.718611876, 288.9477600776124], "rotation": [-2.525564349041751, 1.8385195893238584, 0.015621834606675386]}, "geometry": {"type": "Point", "coordinates": [-76.94622166736828, -12.078411128999623, 288.9477600776124]}}, {"type": "Feature", "properties": {"filename": "DJI_20260825141242_0028_D.JPG", "camera": "v2 dji fc9589 8064 6048 brown 0.6666", "focal": 0.6634616168606359, "width": 8064, "height": 6048, "capture_time": 1787667162.0, "translation": [288209.3811718313, 8664044.908172669, 288.87785263799617], "rotation": [2.5132347675927154, -1.86055700500632, 0.01451654018286208]}, "geometry": {"type": "Point", "coordinates": [-76.94576753560321, -12.078213745259111, 288.87785263799617]}}, {"type": "Feature", "properties": {"filename": "DJI_20260825141152_0023_D.JPG", "camera": "v2 dji fc9589 8064 6048 brown 0.6666", "focal": 0.6634616168606359, "width": 8064, "height": 6048, "capture_time": 1787667112.0, "translation": [288176.51698006364, 8664040.697129458, 288.3021792787165], "rotation": [-2.5293468357747066, 1.857204903511689, 0.007952810410913788]}, "geometry": {"type": "Point", "coordinates": [-76.94606961930343, -12.078249693347859, 288.3021792787165]}}, {"type": "Feature", "properties": {"filename": "DJI_20260825140959_0011_D.JPG", "camera": "v2 dji fc9589 8064 6048 brown 0.6666", "focal": 0.6634616168606359, "width": 8064, "height": 6048, "capture_time": 1787666999.0, "translation": [288206.7084707295, 8664052.63353307, 288.62244544016534], "rotation": [2.505923936515245, -1.8656545359881689, 0.004583383562307335]}, "geometry": {"type": "Point", "coordinates": [-76.9457915760452, -12.07814375103639, 288.62244544016534]}}, {"type": "Feature", "properties": {"filename": "DJI_20260825141507_0042_D.JPG", "camera": "v2 dji fc9589 8064 6048 brown 0.6666", "focal": 0.6634616168606359, "width": 8064, "height": 6048, "capture_time": 1787667307.0, "translation": [288206.89747558464, 8664040.136151588, 288.71507593640825], "rotation": [2.519486543341148, -1.855784929110132, 0.017604195900049545]}, "geometry": {"type": "Point", "coordinates": [-76.9457906562032, -12.078256715634925, 288.71507593640825]}}, {"type": "Feature", "properties": {"filename": "DJI_20260825140939_0008_D.JPG", "camera": "v2 dji fc9589 8064 6048 brown 0.6666", "focal": 0.6634616168606359, "width": 8064, "height": 6048, "capture_time": 1787666979.0, "translation": [288202.55690522207, 8664055.957126345, 288.4725959610862], "rotation": [2.5035203568090694, -1.8618756539339467, -0.0007982816021906443]}, "geometry": {"type": "Point", "coordinates": [-76.94582948501268, -12.078113445359902, 288.4725959610862]}}, {"type": "Feature", "properties": {"filename": "DJI_20260825142019_0079_D.JPG", "camera": "v2 dji fc9589 8064 6048 brown 0.6666", "focal": 0.6634616168606359, "width": 8064, "height": 6048, "capture_time": 1787667619.0, "translation": [288187.085563252, 8664017.932373866, 288.034808464851], "rotation": [-2.5130346059197204, 1.8699084084535358, -0.010700916360403562]}, "geometry": {"type": "Point", "coordinates": [-76.9459740489178, -12.078456122349197, 288.034808464851]}}, {"type": "Feature", "properties": {"filename": "DJI_20260825141959_0076_D.JPG", "camera": "v2 dji fc9589 8064 6048 brown 0.6666", "focal": 0.6634616168606359, "width": 8064, "height": 6048, "capture_time": 1787667599.0, "translation": [288167.1103395002, 8664012.727513025, 288.5864833324023], "rotation": [-2.5037975304184745, 1.8615805279797115, 0.0015801061665988946]}, "geometry": {"type": "Point", "coordinates": [-76.94615783167032, -12.078501880705087, 288.5864833324023]}}, {"type": "Feature", "properties": {"filename": "DJI_20260825141053_0019_D.JPG", "camera": "v2 dji fc9589 8064 6048 brown 0.6666", "focal": 0.6634616168606359, "width": 8064, "height": 6048, "capture_time": 1787667053.0, "translation": [288157.1616564416, 8664039.544452501, 288.5655778101995], "rotation": [-2.5219235104046387, 1.8587083464819247, 0.03141010334233186]}, "geometry": {"type": "Point", "coordinates": [-76.94624744444492, -12.078258867507884, 288.5655778101995]}}, {"type": "Feature", "properties": {"filename": "DJI_20260825141952_0075_D.JPG", "camera": "v2 dji fc9589 8064 6048 brown 0.6666", "focal": 0.6634616168606359, "width": 8064, "height": 6048, "capture_time": 1787667592.0, "translation": [288160.38678706007, 8664011.083928213, 288.8817270565028], "rotation": [-2.5013698237371793, 1.858704028790813, 0.005112492107841081]}, "geometry": {"type": "Point", "coordinates": [-76.94621968488742, -12.078516303475395, 288.8817270565028]}}, {"type": "Feature", "properties": {"filename": "DJI_20260825141613_0052_D.JPG", "camera": "v2 dji fc9589 8064 6048 brown 0.6666", "focal": 0.6634616168606359, "width": 8064, "height": 6048, "capture_time": 1787667373.0, "translation": [288171.8493037102, 8664026.004336236, 288.61910689288277], "rotation": [-2.529028644171157, 1.8438343566051896, 0.006892104417140017]}, "geometry": {"type": "Point", "coordinates": [-76.94611344435432, -12.078382188154917, 288.61910689288277]}}, {"type": "Feature", "properties": {"filename": "DJI_20260825141915_0072_D.JPG", "camera": "v2 dji fc9589 8064 6048 brown 0.6666", "focal": 0.6634616168606359, "width": 8064, "height": 6048, "capture_time": 1787667555.0, "translation": [288161.48674375366, 8664015.556352518, 288.8306698099326], "rotation": [-2.506735749539234, 1.8572643878374964, 0.008155900673279799]}, "geometry": {"type": "Point", "coordinates": [-76.94620929136025, -12.0784759520046, 288.8306698099326]}}]}