{
"type": "FeatureCollection",
"name": "lisimetros",
"crs": { "type": "name", "properties": { "name": "urn:ogc:def:crs:OGC:1.3:CRS84" } },
"features": [
{ "type": "Feature", "properties": { "codigo": "T2-R4", "tratamiento": "T2", "repeticion": "R4", "etc_pct": 120, "etiqueta": "120% ETc", "unidad": 13, "color": "#2456b3", "radio_m": 1.99 }, "geometry": { "type": "Polygon", "coordinates": [ [ [ -76.945929542401032, -12.078202282275829 ], [ -76.945929617666124, -12.07820051874371 ], [ -76.945929868206449, -12.078198770963944 ], [ -76.945930291609173, -12.078197055768584 ], [ -76.945930883796677, -12.078195389675903 ], [ -76.945931639065876, -12.078193788731292 ], [ -76.945932550143112, -12.078192268352716 ], [ -76.945933608254194, -12.07819084318224 ], [ -76.945934803208957, -12.078189526945055 ], [ -76.945936123499322, -12.078188332317215 ], [ -76.945937556410172, -12.078187270803657 ], [ -76.945939088141785, -12.078186352627352 ], [ -76.945940703942767, -12.078185586630797 ], [ -76.94594238825205, -12.07818498019099 ], [ -76.945944124848836, -12.078184539148253 ], [ -76.945945897008741, -12.078184267750087 ], [ -76.945947687664912, -12.078184168610182 ], [ -76.945949479572334, -12.078184242683335 ], [ -76.945951255473986, -12.078184489256156 ], [ -76.945952998266947, -12.078184905954032 ], [ -76.945954691167188, -12.078185488763921 ], [ -76.945956317871136, -12.078186232073058 ], [ -76.94595786271276, -12.078187128722956 ], [ -76.945959310814416, -12.078188170078406 ], [ -76.945960648230042, -12.078189346110582 ], [ -76.945961862079628, -12.078190645493638 ], [ -76.945962940673155, -12.078192055713826 ], [ -76.945963873623143, -12.078193563189938 ], [ -76.945964651944792, -12.078195153404163 ], [ -76.945965268142416, -12.078196811041883 ], [ -76.945965716281734, -12.078198520139132 ], [ -76.945965992046879, -12.078200264236365 ], [ -76.945966092782086, -12.078202026536992 ], [ -76.945966017517236, -12.078203790069084 ], [ -76.945965766977139, -12.078205537848843 ], [ -76.945965343574656, -12.078207253044226 ], [ -76.945964751387365, -12.078208919136953 ], [ -76.945963996118337, -12.078210520081624 ], [ -76.945963085041271, -12.078212040460286 ], [ -76.945962026930275, -12.078213465630862 ], [ -76.945960831975583, -12.078214781868157 ], [ -76.945959511685231, -12.078215976496114 ], [ -76.945958078774353, -12.078217038009793 ], [ -76.945956547042655, -12.078217956186222 ], [ -76.945954931241573, -12.078218722182887 ], [ -76.94595324693212, -12.078219328622797 ], [ -76.945951510335149, -12.078219769665624 ], [ -76.945949738175017, -12.078220041063858 ], [ -76.945947947518619, -12.078220140203813 ], [ -76.945946155610955, -12.078220066130685 ], [ -76.945944379709061, -12.078219819557871 ], [ -76.945942636915859, -12.078219402859974 ], [ -76.945940944015419, -12.078218820050044 ], [ -76.945939317311286, -12.078218076740837 ], [ -76.945937772469506, -12.078217180090862 ], [ -76.945936324367764, -12.078216138735311 ], [ -76.945934986952054, -12.07821496270302 ], [ -76.945933773102453, -12.078213663319849 ], [ -76.945932694508969, -12.078212253099537 ], [ -76.945931761559052, -12.078210745623307 ], [ -76.945930983237531, -12.07820915540897 ], [ -76.945930367040035, -12.078207497771148 ], [ -76.94592991890093, -12.078205788673808 ], [ -76.945929643135997, -12.078204044576507 ], [ -76.945929542401032, -12.078202282275829 ] ] ] } },
{ "type": "Feature", "properties": { "codigo": "T3-R3", "tratamiento": "T3", "repeticion": "R3", "etc_pct": 80, "etiqueta": "80% ETc", "unidad": 9, "color": "#e0a800", "radio_m": 2.05 }, "geometry": { "type": "Polygon", "coordinates": [ [ [ -76.945882121435815, -12.07819281628389 ], [ -76.945882198970537, -12.078190999579911 ], [ -76.945882457065181, -12.078189199103269 ], [ -76.945882893234128, -12.078187432193499 ], [ -76.945883503276846, -12.07818571586693 ], [ -76.945884281318257, -12.078184066652717 ], [ -76.945885219865431, -12.078182500433703 ], [ -76.945886309879626, -12.078181032293417 ], [ -76.94588754086341, -12.078179676370858 ], [ -76.945888900961734, -12.078178445724292 ], [ -76.945890377076111, -12.07817735220554 ], [ -76.945891954990756, -12.078176406345767 ], [ -76.945893619509462, -12.078175617254114 ], [ -76.945895354602044, -12.078174992529977 ], [ -76.945897143558597, -12.078174538189776 ], [ -76.945898969150491, -12.078174258609055 ], [ -76.9459008137963, -12.078174156480323 ], [ -76.945902659731047, -12.078174232787166 ], [ -76.945904489177394, -12.078174486794673 ], [ -76.945906284516795, -12.078174916056621 ], [ -76.945908028459115, -12.078175516438986 ], [ -76.945909704209257, -12.078176282159763 ], [ -76.945911295628861, -12.078177205844637 ], [ -76.945912787391649, -12.078178278598021 ], [ -76.945914165131143, -12.078179490088729 ], [ -76.945915415578966, -12.078180828649417 ], [ -76.945916526692614, -12.078182281389036 ], [ -76.945917487771467, -12.078183834316897 ], [ -76.945918289559799, -12.07818547247747 ], [ -76.945918924335942, -12.078187180094371 ], [ -76.94591938598667, -12.07818894072232 ], [ -76.945919670066019, -12.078190737405494 ], [ -76.945919773838156, -12.078192552840877 ], [ -76.945919696303676, -12.078194369544825 ], [ -76.945919438209302, -12.078196170021466 ], [ -76.945919002040597, -12.078197936931259 ], [ -76.945918391998106, -12.078199653257876 ], [ -76.94591761395688, -12.078201302472158 ], [ -76.945916675409862, -12.078202868691257 ], [ -76.945915585395781, -12.078204336831648 ], [ -76.945914354412068, -12.078205692754322 ], [ -76.945912994313758, -12.078206923401014 ], [ -76.945911518199367, -12.078208016919897 ], [ -76.945909940284636, -12.078208962779797 ], [ -76.945908275765802, -12.078209751871569 ], [ -76.945906540673036, -12.078210376595816 ], [ -76.945904751716299, -12.078210830936108 ], [ -76.945902926124162, -12.078211110516907 ], [ -76.945901081478127, -12.078211212645689 ], [ -76.945899235543123, -12.078211136338876 ], [ -76.945897406096492, -12.078210882331369 ], [ -76.945895610756864, -12.078210453069403 ], [ -76.945893866814316, -12.078209852686991 ], [ -76.945892191063976, -12.078209086966146 ], [ -76.94589059964423, -12.078208163281184 ], [ -76.945889107881328, -12.078207090527695 ], [ -76.945887730141749, -12.078205879036869 ], [ -76.945886479693911, -12.078204540476055 ], [ -76.945885368580292, -12.078203087736306 ], [ -76.945884407501524, -12.078201534808322 ], [ -76.94588360571332, -12.078199896647625 ], [ -76.945882970937348, -12.078198189030619 ], [ -76.945882509286832, -12.078196428402574 ], [ -76.945882225207697, -12.078194631719327 ], [ -76.945882121435815, -12.07819281628389 ] ] ] } },
{ "type": "Feature", "properties": { "codigo": "T4-R2", "tratamiento": "T4", "repeticion": "R2", "etc_pct": 60, "etiqueta": "60% ETc", "unidad": 5, "color": "#d5342a", "radio_m": 1.97 }, "geometry": { "type": "Polygon", "coordinates": [ [ [ -76.945839373596627, -12.078180596985513 ], [ -76.9458394481059, -12.078178851177285 ], [ -76.945839696128843, -12.078177120963117 ], [ -76.945840115276823, -12.078175423005957 ], [ -76.945840701513248, -12.078173773658031 ], [ -76.945841449192329, -12.078172188803489 ], [ -76.945842351113512, -12.078170683705322 ], [ -76.945843398590767, -12.078169272858446 ], [ -76.945844581536363, -12.078167969850101 ], [ -76.945845888557855, -12.078166787228961 ], [ -76.945847307067908, -12.078165736384294 ], [ -76.945848823405512, -12.078164827436344 ], [ -76.945850422967496, -12.078164069138758 ], [ -76.94585209034922, -12.07816346879434 ], [ -76.945853809492888, -12.078163032184767 ], [ -76.945855563842173, -12.078162763514781 ], [ -76.945857336501788, -12.078162665371858 ], [ -76.945859110400008, -12.078162738701153 ], [ -76.945860868453266, -12.078162982796476 ], [ -76.945862593730524, -12.078163395307023 ], [ -76.945864269616436, -12.078163972260134 ], [ -76.945865879971308, -12.078164708099406 ], [ -76.945867409286535, -12.078165595738311 ], [ -76.945868842834003, -12.078166626628427 ], [ -76.945870166807836, -12.078167790841684 ], [ -76.945871368457446, -12.078169077166089 ], [ -76.945872436210308, -12.078170473213646 ], [ -76.945873359783363, -12.078171965539635 ], [ -76.945874130282121, -12.07817353977215 ], [ -76.945874740286214, -12.07817518075049 ], [ -76.945875183921004, -12.078176872671119 ], [ -76.945875456914024, -12.078178599239941 ], [ -76.945875556636224, -12.078180343829112 ], [ -76.945875482127192, -12.078182089637316 ], [ -76.945875234104491, -12.078183819851484 ], [ -76.945874814956724, -12.078185517808659 ], [ -76.945874228720498, -12.078187167156628 ], [ -76.945873481041602, -12.078188752011233 ], [ -76.945872579120575, -12.078190257109481 ], [ -76.945871531643405, -12.078191667956455 ], [ -76.945870348697895, -12.07819297096491 ], [ -76.945869041676403, -12.078194153586166 ], [ -76.945867623166322, -12.078195204430948 ], [ -76.945866106828646, -12.078196113379017 ], [ -76.945864507266549, -12.078196871676713 ], [ -76.945862839884668, -12.07819747202123 ], [ -76.945861120740815, -12.078197908630894 ], [ -76.945859366391304, -12.078198177300946 ], [ -76.945857593731475, -12.078198275443921 ], [ -76.945855819833014, -12.078198202114649 ], [ -76.945854061779514, -12.078197958019329 ], [ -76.945852336502028, -12.078197545508761 ], [ -76.945850660615918, -12.078196968555613 ], [ -76.945849050260861, -12.078196232716277 ], [ -76.945847520945478, -12.078195345077287 ], [ -76.945846087397925, -12.078194314187078 ], [ -76.945844763424034, -12.078193149973709 ], [ -76.945843561774396, -12.078191863649188 ], [ -76.945842494021576, -12.078190467601512 ], [ -76.945841570448579, -12.078188975275404 ], [ -76.945840799949963, -12.078187401042781 ], [ -76.945840189946011, -12.078185760064338 ], [ -76.945839746311407, -12.078184068143628 ], [ -76.945839473318586, -12.078182341574735 ], [ -76.945839373596627, -12.078180596985513 ] ] ] } },
{ "type": "Feature", "properties": { "codigo": "T1-R1", "tratamiento": "T1", "repeticion": "R1", "etc_pct": 100, "etiqueta": "100% ETc", "unidad": 1, "color": "#2e9e44", "radio_m": 2.04 }, "geometry": { "type": "Polygon", "coordinates": [ [ [ -76.945793828706115, -12.078168939561813 ], [ -76.945793905863241, -12.078167131719747 ], [ -76.945794162699485, -12.078165340025897 ], [ -76.945794596741365, -12.078163581735252 ], [ -76.945795203808828, -12.07816187378112 ], [ -76.945795978055443, -12.07816023261203 ], [ -76.945796912024846, -12.078158674033336 ], [ -76.945797996722362, -12.078157213054995 ], [ -76.945799221701748, -12.078155863747032 ], [ -76.945800575165819, -12.078154639104014 ], [ -76.94580204407994, -12.078153550919923 ], [ -76.945803614297702, -12.078152609674568 ], [ -76.945805270697022, -12.078151824432657 ], [ -76.945806997325889, -12.07815120275648 ], [ -76.945808777555911, -12.078150750633144 ], [ -76.945810594242502, -12.078150472416816 ], [ -76.945812429889997, -12.078150370786895 ], [ -76.945814266820094, -12.078150446722102 ], [ -76.945816087342152, -12.078150699491172 ], [ -76.945817873923588, -12.078151126659771 ], [ -76.945819609358608, -12.078151724114059 ], [ -76.945821276934041, -12.078152486100196 ], [ -76.945822860590241, -12.078153405279872 ], [ -76.945824345075707, -12.078154472800863 ], [ -76.945825716094063, -12.078155678382373 ], [ -76.945826960441636, -12.078157010413978 ], [ -76.945828066134681, -12.0781584560675 ], [ -76.945829022524777, -12.0781600014205 ], [ -76.945829820401357, -12.078161631590394 ], [ -76.945830452080429, -12.078163330877757 ], [ -76.945830911478581, -12.07816508291752 ], [ -76.945831194171561, -12.078166870836581 ], [ -76.945831297436868, -12.078168677416301 ], [ -76.945831220279985, -12.07817048525834 ], [ -76.94583096344401, -12.078172276952184 ], [ -76.945830529402357, -12.078174035242855 ], [ -76.945829922335122, -12.078175743197031 ], [ -76.945829148088691, -12.078177384366191 ], [ -76.945828214119459, -12.078178942944971 ], [ -76.945827129422057, -12.078180403923419 ], [ -76.945825904442728, -12.078181753231494 ], [ -76.945824550978685, -12.078182977874638 ], [ -76.945823082064507, -12.078184066058855 ], [ -76.945821511846674, -12.078185007304342 ], [ -76.945819855447226, -12.078185792546369 ], [ -76.945818128818203, -12.078186414222653 ], [ -76.945816348587982, -12.07818686634608 ], [ -76.945814531901163, -12.078187144562483 ], [ -76.945812696253427, -12.078187246192456 ], [ -76.945810859323075, -12.078187170257277 ], [ -76.945809038800746, -12.078186917488209 ], [ -76.945807252219083, -12.078186490319593 ], [ -76.945805516783835, -12.078185892865259 ], [ -76.945803849208218, -12.078185130879049 ], [ -76.945802265551862, -12.078184211699288 ], [ -76.945800781066268, -12.07818314417819 ], [ -76.945799410047854, -12.078181938596568 ], [ -76.945798165700268, -12.078180606564841 ], [ -76.945797060007251, -12.078179160911187 ], [ -76.945796103617241, -12.078177615558062 ], [ -76.945795305740788, -12.07817598538805 ], [ -76.945794674061887, -12.078174286100582 ], [ -76.94579421466392, -12.078172534060723 ], [ -76.945793931971167, -12.078170746141588 ], [ -76.945793828706115, -12.078168939561813 ] ] ] } },
{ "type": "Feature", "properties": { "codigo": "T1-R4", "tratamiento": "T1", "repeticion": "R4", "etc_pct": 100, "etiqueta": "100% ETc", "unidad": 14, "color": "#2e9e44", "radio_m": 2.03 }, "geometry": { "type": "Polygon", "coordinates": [ [ [ -76.945918226959037, -12.078247942834242 ], [ -76.945918303737045, -12.078246143854239 ], [ -76.945918559313426, -12.078244360943215 ], [ -76.945918991226861, -12.078242611271568 ], [ -76.945919595317775, -12.078240911689591 ], [ -76.945920365768416, -12.07823927856519 ], [ -76.945921295158939, -12.07823772762625 ], [ -76.94592237453881, -12.078236273809145 ], [ -76.945923593512987, -12.078234931114931 ], [ -76.94592494034211, -12.0782337124745 ], [ -76.945926402055463, -12.078232629624003 ], [ -76.945927964575944, -12.078231692991906 ], [ -76.945929612855636, -12.07823091159846 ], [ -76.945931331020688, -12.078230292968934 ], [ -76.945933102524265, -12.078229843061028 ], [ -76.945934910305795, -12.078229566207643 ], [ -76.945936736955375, -12.078229465075021 ], [ -76.945938564881345, -12.078229540637086 ], [ -76.945940376479825, -12.078229792166171 ], [ -76.945942154304106, -12.078230217239925 ], [ -76.945943881232779, -12.0782308117646 ], [ -76.945945540634582, -12.078231570014655 ], [ -76.945947116528572, -12.078232484687685 ], [ -76.945948593738009, -12.07823354697493 ], [ -76.945949958036607, -12.078234746645952 ], [ -76.945951196285392, -12.078236072147286 ], [ -76.945952296559341, -12.078237510713628 ], [ -76.945953248262242, -12.078239048490778 ], [ -76.945954042228664, -12.07824067066913 ], [ -76.945954670812284, -12.078242361626215 ], [ -76.945955127959465, -12.078244105077184 ], [ -76.945955409267654, -12.078245884231661 ], [ -76.945955512027695, -12.078247681955419 ], [ -76.945955435249928, -12.078249480935396 ], [ -76.945955179673803, -12.078251263846415 ], [ -76.945954747760609, -12.078253013518085 ], [ -76.945954143669923, -12.078254713100105 ], [ -76.945953373219467, -12.078256346224574 ], [ -76.9459524438291, -12.078257897163597 ], [ -76.945951364449343, -12.07825935098081 ], [ -76.945950145475223, -12.078260693675139 ], [ -76.945948798646128, -12.078261912315689 ], [ -76.945947336932747, -12.078262995166316 ], [ -76.945945774412181, -12.078263931798533 ], [ -76.94594412613236, -12.0782647131921 ], [ -76.945942407967152, -12.078265331821733 ], [ -76.945940636463376, -12.078265781729732 ], [ -76.945938828681619, -12.078266058583191 ], [ -76.945937002031798, -12.078266159715863 ], [ -76.945935174105571, -12.078266084153825 ], [ -76.94593336250685, -12.078265832624739 ], [ -76.945931584682327, -12.078265407550969 ], [ -76.945929857753427, -12.078264813026246 ], [ -76.945928198351424, -12.078264054776128 ], [ -76.945926622457293, -12.078263140103008 ], [ -76.945925145247728, -12.078262077815662 ], [ -76.945923780949073, -12.078260878144523 ], [ -76.945922542700274, -12.078259552643065 ], [ -76.945921442426354, -12.078258114076601 ], [ -76.945920490723523, -12.078256576299321 ], [ -76.94591969675723, -12.078254954120855 ], [ -76.945919068173779, -12.078253263163665 ], [ -76.945918611026798, -12.0782515197126 ], [ -76.945918329718836, -12.078249740558054 ], [ -76.945918226959037, -12.078247942834242 ] ] ] } },
{ "type": "Feature", "properties": { "codigo": "T4-R3", "tratamiento": "T4", "repeticion": "R3", "etc_pct": 60, "etiqueta": "60% ETc", "unidad": 10, "color": "#d5342a", "radio_m": 1.97 }, "geometry": { "type": "Polygon", "coordinates": [ [ [ -76.945874025786352, -12.078236682758764 ], [ -76.945874100295356, -12.078234936950563 ], [ -76.945874348318057, -12.0782332067364 ], [ -76.945874767465853, -12.078231508779211 ], [ -76.945875353702135, -12.078229859431236 ], [ -76.945876101381089, -12.078228274576613 ], [ -76.945877003302186, -12.078226769478341 ], [ -76.945878050779427, -12.078225358631331 ], [ -76.945879233725023, -12.078224055622831 ], [ -76.945880540746558, -12.078222873001513 ], [ -76.945881959256724, -12.078221822156653 ], [ -76.945883475594471, -12.078220913208485 ], [ -76.945885075156639, -12.078220154910667 ], [ -76.945886742538576, -12.078219554566004 ], [ -76.945888461682486, -12.078219117956168 ], [ -76.945890216032069, -12.078218849285916 ], [ -76.945891988691997, -12.078218751142716 ], [ -76.945893762590572, -12.078218824471731 ], [ -76.9458955206442, -12.078219068566776 ], [ -76.945897245921842, -12.07821948107704 ], [ -76.94589892180818, -12.078220058029874 ], [ -76.945900532163463, -12.078220793868875 ], [ -76.945902061479131, -12.078221681507525 ], [ -76.945903495027025, -12.078222712397389 ], [ -76.945904819001285, -12.078223876610409 ], [ -76.945906020651336, -12.078225162934599 ], [ -76.945907088404638, -12.078226558981955 ], [ -76.945908011978105, -12.078228051307763 ], [ -76.945908782477247, -12.078229625540121 ], [ -76.945909392481738, -12.078231266518326 ], [ -76.945909836116897, -12.078232958438845 ], [ -76.945910109110244, -12.078234685007581 ], [ -76.945910208832728, -12.0782364295967 ], [ -76.945910134323967, -12.078238175404872 ], [ -76.945909886301507, -12.078239905619036 ], [ -76.945909467153925, -12.078241603576242 ], [ -76.945908880917855, -12.07824325292426 ], [ -76.945908133239072, -12.078244837778946 ], [ -76.945907231318131, -12.0782463428773 ], [ -76.945906183840989, -12.07824775372441 ], [ -76.945905000895451, -12.078249056733014 ], [ -76.94590369387393, -12.078250239354446 ], [ -76.945902275363736, -12.078251290199429 ], [ -76.945900759025918, -12.078252199147713 ], [ -76.945899159463636, -12.078252957445642 ], [ -76.945897492081542, -12.078253557790408 ], [ -76.945895772937448, -12.078253994400328 ], [ -76.945894018587651, -12.078254263070651 ], [ -76.945892245927496, -12.078254361213899 ], [ -76.94589047202868, -12.078254287884908 ], [ -76.945888713974824, -12.078254043789871 ], [ -76.945886988696941, -12.078253631279585 ], [ -76.945885312810418, -12.078253054326707 ], [ -76.94588370245495, -12.078252318487641 ], [ -76.945882173139125, -12.078251430848914 ], [ -76.945880739591132, -12.07825039995895 ], [ -76.945879415616801, -12.078249235745822 ], [ -76.945878213966736, -12.078247949421518 ], [ -76.945877146213476, -12.078246553374042 ], [ -76.945876222640081, -12.078245061048117 ], [ -76.945875452141053, -12.078243486815644 ], [ -76.945874842136718, -12.07824184583734 ], [ -76.945874398501758, -12.078240153916735 ], [ -76.94587412550861, -12.07823842734793 ], [ -76.945874025786352, -12.078236682758764 ] ] ] } },
{ "type": "Feature", "properties": { "codigo": "T3-R2", "tratamiento": "T3", "repeticion": "R2", "etc_pct": 80, "etiqueta": "80% ETc", "unidad": 6, "color": "#e0a800", "radio_m": 1.99 }, "geometry": { "type": "Polygon", "coordinates": [ [ [ -76.945829602014072, -12.078226391357585 ], [ -76.945829677279818, -12.078224627825394 ], [ -76.94582992782081, -12.078222880045617 ], [ -76.945830351224203, -12.078221164850307 ], [ -76.945830943412389, -12.078219498757736 ], [ -76.945831698682269, -12.078217897813301 ], [ -76.945832609760174, -12.078216377434957 ], [ -76.945833667871923, -12.078214952264766 ], [ -76.94583486282734, -12.078213636027918 ], [ -76.945836183118317, -12.078212441400472 ], [ -76.945837616029749, -12.078211379887351 ], [ -76.94583914776193, -12.078210461711523 ], [ -76.94584076356341, -12.078209695715488 ], [ -76.945842447873162, -12.078209089276227 ], [ -76.94584418447036, -12.078208648234069 ], [ -76.94584595663062, -12.078208376836498 ], [ -76.94584774728709, -12.078208277697208 ], [ -76.945849539194754, -12.078208351770986 ], [ -76.945851315096576, -12.078208598344435 ], [ -76.94585305788965, -12.078209015042935 ], [ -76.94585475078992, -12.078209597853441 ], [ -76.945856377493854, -12.078210341163185 ], [ -76.945857922335392, -12.078211237813662 ], [ -76.945859370436864, -12.078212279169676 ], [ -76.945860707852276, -12.078213455202377 ], [ -76.945861921701578, -12.078214754585924 ], [ -76.94586300029475, -12.078216164806564 ], [ -76.945863933244354, -12.078217672283079 ], [ -76.945864711565534, -12.078219262497662 ], [ -76.945865327762675, -12.078220920135688 ], [ -76.945865775901439, -12.07822262923319 ], [ -76.945866051666002, -12.078224373330611 ], [ -76.945866152400583, -12.078226135631374 ], [ -76.945866077135094, -12.078227899163538 ], [ -76.945865826594343, -12.078229646943305 ], [ -76.945865403191178, -12.078231362138636 ], [ -76.945864811003204, -12.078233028231251 ], [ -76.945864055733509, -12.078234629175752 ], [ -76.945863144655746, -12.078236149554181 ], [ -76.945862086544096, -12.078237574724469 ], [ -76.945860891588765, -12.078238890961426 ], [ -76.945859571297788, -12.078240085588995 ], [ -76.945858138386328, -12.078241147102231 ], [ -76.945856606654075, -12.078242065278186 ], [ -76.945854990852467, -12.078242831274334 ], [ -76.94585330654256, -12.078243437713693 ], [ -76.945851569945177, -12.078243878755941 ], [ -76.945849797784689, -12.07824415015358 ], [ -76.945848007127992, -12.078244249292924 ], [ -76.945846215220087, -12.07824417521917 ], [ -76.945844439318037, -12.078243928645726 ], [ -76.945842696524721, -12.078243511947205 ], [ -76.945841003624238, -12.078242929136655 ], [ -76.945839376920119, -12.078242185826847 ], [ -76.945837832078439, -12.078241289176287 ], [ -76.945836383976868, -12.078240247820176 ], [ -76.945835046561385, -12.078239071787362 ], [ -76.945833832712054, -12.078237772403696 ], [ -76.945832754118925, -12.078236362182935 ], [ -76.945831821169406, -12.078234854706299 ], [ -76.945831042848326, -12.078233264491601 ], [ -76.945830426651355, -12.078231606853471 ], [ -76.945829978512776, -12.078229897755884 ], [ -76.945829702748441, -12.078228153658392 ], [ -76.945829602014072, -12.078226391357585 ] ] ] } },
{ "type": "Feature", "properties": { "codigo": "T2-R1", "tratamiento": "T2", "repeticion": "R1", "etc_pct": 120, "etiqueta": "120% ETc", "unidad": 2, "color": "#2456b3", "radio_m": 1.97 }, "geometry": { "type": "Polygon", "coordinates": [ [ [ -76.945782701176626, -12.078212646477226 ], [ -76.94578277568624, -12.07821090066896 ], [ -76.945783023709552, -12.078209170454782 ], [ -76.94578344285793, -12.078207472497651 ], [ -76.945784029094753, -12.078205823149787 ], [ -76.945784776774261, -12.078204238295333 ], [ -76.945785678695856, -12.078202733197291 ], [ -76.945786726173566, -12.078201322350564 ], [ -76.945787909119559, -12.078200019342397 ], [ -76.945789216141478, -12.078198836721466 ], [ -76.945790634651956, -12.07819778587703 ], [ -76.945792150989959, -12.07819687692934 ], [ -76.94579375055234, -12.078196118632025 ], [ -76.94579541793442, -12.078195518287897 ], [ -76.945797137078429, -12.078195081678627 ], [ -76.945798891428041, -12.078194813008961 ], [ -76.945800664087926, -12.078194714866365 ], [ -76.94580243798643, -12.07819478819599 ], [ -76.945804196039902, -12.078195032291646 ], [ -76.945805921317344, -12.078195444802528 ], [ -76.945807597203398, -12.078196021755966 ], [ -76.945809207558369, -12.07819675759556 ], [ -76.945810736873668, -12.078197645234779 ], [ -76.945812170421135, -12.078198676125192 ], [ -76.94581349439494, -12.078199840338726 ], [ -76.945814696044494, -12.078201126663394 ], [ -76.945815763797242, -12.078202522711191 ], [ -76.945816687370154, -12.078204015037397 ], [ -76.945817457868728, -12.0782055892701 ], [ -76.945818067872608, -12.078207230248609 ], [ -76.945818511507142, -12.078208922169367 ], [ -76.945818784499878, -12.07821064873829 ], [ -76.945818884221751, -12.078212393327533 ], [ -76.945818809712364, -12.078214139135778 ], [ -76.945818561689308, -12.078215869349947 ], [ -76.945818142541142, -12.078217567307101 ], [ -76.945817556304519, -12.078219216655008 ], [ -76.945816808625196, -12.078220801509524 ], [ -76.945815906703757, -12.07822230660765 ], [ -76.945814859226161, -12.078223717454472 ], [ -76.94581367628021, -12.078225020462746 ], [ -76.945812369258306, -12.078226203083794 ], [ -76.945810950747799, -12.078227253928343 ], [ -76.945809434409711, -12.078228162876162 ], [ -76.94580783484723, -12.078228921173586 ], [ -76.94580616746498, -12.078229521517809 ], [ -76.9458044483208, -12.078229958127165 ], [ -76.945802693970961, -12.078230226796901 ], [ -76.945800921310848, -12.078230324939549 ], [ -76.945799147412117, -12.078230251609947 ], [ -76.945797389358404, -12.078230007514293 ], [ -76.945795664080748, -12.078229595003393 ], [ -76.945793988194481, -12.078229018049914 ], [ -76.945792377839325, -12.07822828221026 ], [ -76.945790848523885, -12.078227394570956 ], [ -76.945789414976304, -12.07822636368045 ], [ -76.945788091002427, -12.078225199466802 ], [ -76.945786889352874, -12.07822391314202 ], [ -76.94578582160014, -12.078222517094105 ], [ -76.945784898027298, -12.07822102476778 ], [ -76.945784127528867, -12.078219450534963 ], [ -76.945783517525129, -12.07821780955636 ], [ -76.945783073890794, -12.078216117635511 ], [ -76.945782800898257, -12.078214391066521 ], [ -76.945782701176626, -12.078212646477226 ] ] ] } },
{ "type": "Feature", "properties": { "codigo": "T4-R4", "tratamiento": "T4", "repeticion": "R4", "etc_pct": 60, "etiqueta": "60% ETc", "unidad": 15, "color": "#d5342a", "radio_m": 1.99 }, "geometry": { "type": "Polygon", "coordinates": [ [ [ -76.945908506659563, -12.07829066374287 ], [ -76.945908581924726, -12.078288900210744 ], [ -76.945908832465193, -12.078287152430974 ], [ -76.945909255868102, -12.078285437235614 ], [ -76.945909848055848, -12.078283771142939 ], [ -76.945910603325345, -12.078282170198335 ], [ -76.945911514402923, -12.078280649819774 ], [ -76.945912572514416, -12.078279224649318 ], [ -76.945913767469619, -12.078277908412153 ], [ -76.945915087760469, -12.078276713784339 ], [ -76.945916520671815, -12.078275652270815 ], [ -76.945918052403997, -12.078274734094537 ], [ -76.945919668205534, -12.078273968098022 ], [ -76.945921352515413, -12.078273361658251 ], [ -76.945923089112796, -12.078272920615557 ], [ -76.945924861273312, -12.078272649217434 ], [ -76.945926651930094, -12.078272550077573 ], [ -76.945928443838127, -12.078272624150774 ], [ -76.945930219740376, -12.078272870723639 ], [ -76.945931962533919, -12.078273287421561 ], [ -76.945933655434715, -12.078273870231495 ], [ -76.945935282139217, -12.07827461354068 ], [ -76.945936826981338, -12.07827551019062 ], [ -76.945938275083449, -12.078276551546114 ], [ -76.945939612499515, -12.078277727578335 ], [ -76.945940826349485, -12.078279026961427 ], [ -76.945941904943325, -12.078280437181649 ], [ -76.945942837893583, -12.078281944657794 ], [ -76.945943616215459, -12.07828353487205 ], [ -76.945944232413254, -12.078285192509794 ], [ -76.945944680552671, -12.078286901607067 ], [ -76.945944956317874, -12.078288645704314 ], [ -76.945945057053081, -12.078290408004953 ], [ -76.945944981788131, -12.078292171537056 ], [ -76.94594473124792, -12.078293919316819 ], [ -76.945944307845238, -12.078295634512203 ], [ -76.945943715657705, -12.078297300604925 ], [ -76.945942960388393, -12.078298901549587 ], [ -76.945942049310958, -12.078300421928233 ], [ -76.945940991199592, -12.078301847098793 ], [ -76.945939796244446, -12.078303163336063 ], [ -76.945938475953611, -12.078304357963995 ], [ -76.945937043042221, -12.078305419477646 ], [ -76.945935511309983, -12.078306337654043 ], [ -76.945933895508304, -12.078307103650673 ], [ -76.945932211198283, -12.07830771009054 ], [ -76.945930474600701, -12.078308151133328 ], [ -76.945928702439971, -12.078308422531519 ], [ -76.945926911782948, -12.078308521671428 ], [ -76.945925119874673, -12.078308447598257 ], [ -76.945923343972183, -12.078308201025395 ], [ -76.945921601178426, -12.078307784327448 ], [ -76.945919908277403, -12.078307201517475 ], [ -76.945918281572744, -12.078306458208223 ], [ -76.945916736730453, -12.078305561558201 ], [ -76.945915288628242, -12.078304520202606 ], [ -76.94591395121212, -12.078303344170278 ], [ -76.945912737362136, -12.078302044787067 ], [ -76.94591165876831, -12.078300634566721 ], [ -76.945910725818123, -12.078299127090458 ], [ -76.945909947496361, -12.078297536876093 ], [ -76.945909331298736, -12.078295879238238 ], [ -76.945908883159504, -12.078294170140881 ], [ -76.945908607394529, -12.078292426043562 ], [ -76.945908506659563, -12.07829066374287 ] ] ] } },
{ "type": "Feature", "properties": { "codigo": "T1-R3", "tratamiento": "T1", "repeticion": "R3", "etc_pct": 100, "etiqueta": "100% ETc", "unidad": 11, "color": "#2e9e44", "radio_m": 1.99 }, "geometry": { "type": "Polygon", "coordinates": [ [ [ -76.945864014741019, -12.078279839551318 ], [ -76.945864090006495, -12.078278076019158 ], [ -76.94586434054726, -12.078276328239385 ], [ -76.945864763950453, -12.078274613044044 ], [ -76.945865356138484, -12.078272946951422 ], [ -76.945866111408236, -12.078271346006911 ], [ -76.94586702248607, -12.078269825628459 ], [ -76.945868080597776, -12.078268400458139 ], [ -76.945869275553193, -12.078267084221141 ], [ -76.945870595844227, -12.078265889593515 ], [ -76.945872028755744, -12.078264828080201 ], [ -76.945873560488053, -12.078263909904154 ], [ -76.94587517628969, -12.078263143907886 ], [ -76.945876860599668, -12.07826253746838 ], [ -76.945878597197094, -12.078262096425965 ], [ -76.945880369357639, -12.078261825028129 ], [ -76.945882160014406, -12.078261725888563 ], [ -76.945883951922397, -12.078261799962064 ], [ -76.945885727824574, -12.07826204653523 ], [ -76.945887470618018, -12.078262463233454 ], [ -76.945889163518686, -12.078263046043684 ], [ -76.945890790223032, -12.078263789353159 ], [ -76.945892335064983, -12.078264686003379 ], [ -76.945893783166895, -12.078265727359142 ], [ -76.945895120582747, -12.078266903391613 ], [ -76.945896334432462, -12.078268202774941 ], [ -76.945897413026046, -12.078269612995383 ], [ -76.945898345976047, -12.078271120471721 ], [ -76.945899124297625, -12.078272710686143 ], [ -76.945899740495136, -12.078274368324037 ], [ -76.945900188634255, -12.07827607742143 ], [ -76.945900464399145, -12.078277821518771 ], [ -76.945900565134039, -12.078279583819471 ], [ -76.945900489868805, -12.078281347351604 ], [ -76.945900239328296, -12.078283095131374 ], [ -76.94589981592533, -12.07828481032673 ], [ -76.945899223737513, -12.078286476419398 ], [ -76.945898468467945, -12.078288077363977 ], [ -76.945897557390253, -12.078289597742513 ], [ -76.945896499278646, -12.07829102291293 ], [ -76.945895304323315, -12.078292339150043 ], [ -76.945893984032281, -12.078293533777785 ], [ -76.945892551120721, -12.078294595291222 ], [ -76.94589101938837, -12.078295513467381 ], [ -76.945889403586591, -12.078296279463768 ], [ -76.94588771927647, -12.078296885903375 ], [ -76.945885982678845, -12.078297326945881 ], [ -76.945884210518088, -12.078297598343786 ], [ -76.945882419861078, -12.0782976974834 ], [ -76.945880627952846, -12.078297623409929 ], [ -76.945878852050427, -12.078297376836762 ], [ -76.945877109256756, -12.078296960138521 ], [ -76.945875416355861, -12.078296377328245 ], [ -76.945873789651344, -12.078295634018707 ], [ -76.945872244809237, -12.078294737368404 ], [ -76.94587079670724, -12.078293696012542 ], [ -76.94586945929133, -12.078292519979961 ], [ -76.945868245441574, -12.078291220596512 ], [ -76.945867166848018, -12.078289810375953 ], [ -76.945866233898101, -12.078288302899495 ], [ -76.945865455576637, -12.078286712684955 ], [ -76.945864839379283, -12.078285055046956 ], [ -76.945864391240363, -12.07828334594948 ], [ -76.945864115475686, -12.078281601852071 ], [ -76.945864014741019, -12.078279839551318 ] ] ] } },
{ "type": "Feature", "properties": { "codigo": "T2-R2", "tratamiento": "T2", "repeticion": "R2", "etc_pct": 120, "etiqueta": "120% ETc", "unidad": 7, "color": "#2456b3", "radio_m": 2.02 }, "geometry": { "type": "Polygon", "coordinates": [ [ [ -76.945817637179417, -12.078271152603291 ], [ -76.945817713579871, -12.078269362485194 ], [ -76.945817967897938, -12.078267588356962 ], [ -76.945818397684391, -12.078265847304442 ], [ -76.945818998800178, -12.078264156094905 ], [ -76.945819765456193, -12.078262531015632 ], [ -76.94582069026913, -12.07826098771702 ], [ -76.945821764332536, -12.078259541061868 ], [ -76.945822977302583, -12.078258204982266 ], [ -76.945824317497696, -12.078256992345377 ], [ -76.945825772011091, -12.078255914829581 ], [ -76.945827326834987, -12.078254982811925 ], [ -76.945828966995578, -12.078254205268237 ], [ -76.945830676697241, -12.078253589686694 ], [ -76.945832439474614, -12.078253141995681 ], [ -76.945834238351182, -12.07825286650673 ], [ -76.945836056002776, -12.078252765872911 ], [ -76.945837874924422, -12.078252841063401 ], [ -76.94583967759894, -12.078253091354062 ], [ -76.945841446665582, -12.078253514334488 ], [ -76.945843165087254, -12.078254105931119 ], [ -76.945844816314619, -12.078254860446565 ], [ -76.945846384445474, -12.078255770614419 ], [ -76.94584785437786, -12.078256827669279 ], [ -76.945849211955533, -12.078258021431147 ], [ -76.945850444104266, -12.078259340403417 ], [ -76.945851538957811, -12.078260771883686 ], [ -76.945852485972097, -12.078262302086001 ], [ -76.945853276026881, -12.07826391627369 ], [ -76.945853901513502, -12.078265598901247 ], [ -76.945854356408176, -12.078267333764044 ], [ -76.945854636330012, -12.078269104154419 ], [ -76.945854738583208, -12.078270893022522 ], [ -76.94585466218301, -12.078272683140591 ], [ -76.945854407865198, -12.078274457268822 ], [ -76.945853978078972, -12.078276198321362 ], [ -76.945853376963413, -12.078277889530945 ], [ -76.945852610307568, -12.078279514610285 ], [ -76.945851685494787, -12.078281057908979 ], [ -76.945850611431496, -12.078282504564235 ], [ -76.945849398461533, -12.078283840643952 ], [ -76.945848058266421, -12.078285053280959 ], [ -76.945846603752997, -12.078286130796885 ], [ -76.94584504892903, -12.078287062814665 ], [ -76.945843408768312, -12.07828784035847 ], [ -76.945841699066477, -12.078288455940111 ], [ -76.94583993628892, -12.078288903631218 ], [ -76.945838137412125, -12.078289179120246 ], [ -76.945836319760289, -12.078289279754113 ], [ -76.945834500838387, -12.078289204563651 ], [ -76.945832698163628, -12.07828895427299 ], [ -76.945830929096758, -12.078288531292547 ], [ -76.945829210674873, -12.078287939695871 ], [ -76.945827559447295, -12.078287185180359 ], [ -76.945825991316298, -12.078286275012418 ], [ -76.945824521383798, -12.078285217957456 ], [ -76.945823163806054, -12.078284024195474 ], [ -76.945821931657306, -12.078282705223081 ], [ -76.945820836803804, -12.078281273742691 ], [ -76.94581988978959, -12.078279743540252 ], [ -76.945819099734919, -12.078278129352448 ], [ -76.945818474248469, -12.078276446724782 ], [ -76.945818019353993, -12.078274711861898 ], [ -76.945817739432385, -12.07827294147145 ], [ -76.945817637179417, -12.078271152603291 ] ] ] } },
{ "type": "Feature", "properties": { "codigo": "T3-R1", "tratamiento": "T3", "repeticion": "R1", "etc_pct": 80, "etiqueta": "80% ETc", "unidad": 3, "color": "#e0a800", "radio_m": 1.95 }, "geometry": { "type": "Polygon", "coordinates": [ [ [ -76.94577301845905, -12.078260573324037 ], [ -76.945773092212249, -12.078258845239709 ], [ -76.945773337717611, -12.078257132591171 ], [ -76.945773752610762, -12.078255451872169 ], [ -76.945774332896065, -12.078253819268951 ], [ -76.945775072985057, -12.078252250504397 ], [ -76.945775965750272, -12.078250760686542 ], [ -76.945777002593871, -12.078249364163135 ], [ -76.945778173530513, -12.078248074383479 ], [ -76.945779467283415, -12.078246903768854 ], [ -76.945780871393026, -12.078245863592912 ], [ -76.945782372337035, -12.078244963873127 ], [ -76.945783955660488, -12.078244213274264 ], [ -76.945785606115152, -12.07824361902502 ], [ -76.945787307806228, -12.078243186848328 ], [ -76.945789044345517, -12.078242920906304 ], [ -76.945790799009174, -12.078242823760098 ], [ -76.945792554898873, -12.078242896345268 ], [ -76.945794295104406, -12.078243137962794 ], [ -76.945796002866643, -12.07824354628578 ], [ -76.945797661738936, -12.078244117381832 ], [ -76.945799255745428, -12.078244845750994 ], [ -76.945800769534941, -12.078245724378657 ], [ -76.945802188528887, -12.078246744803179 ], [ -76.945803499061569, -12.078247897197308 ], [ -76.945804688511842, -12.078249170462858 ], [ -76.945805745424636, -12.078250552337597 ], [ -76.94580665962134, -12.078252029513296 ], [ -76.945807422297705, -12.078253587763948 ], [ -76.94580802610875, -12.078255212082782 ], [ -76.945808465239452, -12.078256886826701 ], [ -76.945808735460716, -12.078258595867002 ], [ -76.94580883417018, -12.078260322744688 ], [ -76.945808760417222, -12.07826205082899 ], [ -76.945808514912102, -12.078263763477528 ], [ -76.94580810001915, -12.078265444196548 ], [ -76.945807519734046, -12.078267076799808 ], [ -76.945806779645224, -12.078268645564423 ], [ -76.945805886880166, -12.078270135382359 ], [ -76.945804850036652, -12.078271531905864 ], [ -76.945803679100081, -12.078272821685621 ], [ -76.945802385347207, -12.078273992300362 ], [ -76.945800981237554, -12.078275032476421 ], [ -76.945799480293473, -12.07827593219632 ], [ -76.945797896969893, -12.078276682795291 ], [ -76.945796246515087, -12.078277277044634 ], [ -76.945794544823841, -12.07827770922141 ], [ -76.945792808284338, -12.078277975163504 ], [ -76.945791053620439, -12.078278072309756 ], [ -76.945789297730528, -12.078277999724612 ], [ -76.945787557524767, -12.078277758107088 ], [ -76.945785849762288, -12.078277349784084 ], [ -76.945784190889796, -12.078276778687991 ], [ -76.945782596883149, -12.078276050318767 ], [ -76.945781083093493, -12.078275171691025 ], [ -76.945779664099433, -12.078274151266406 ], [ -76.945778353566695, -12.078272998872173 ], [ -76.945777164116407, -12.078271725606506 ], [ -76.945776107203628, -12.078270343731653 ], [ -76.945775193007009, -12.07826886655584 ], [ -76.945774430330758, -12.078267308305074 ], [ -76.945773826519854, -12.078265683986139 ], [ -76.945773387389352, -12.07826400924214 ], [ -76.945773117168287, -12.078262300201773 ], [ -76.94577301845905, -12.078260573324037 ] ] ] } },
{ "type": "Feature", "properties": { "codigo": "T3-R4", "tratamiento": "T3", "repeticion": "R4", "etc_pct": 80, "etiqueta": "80% ETc", "unidad": 16, "color": "#e0a800", "radio_m": 1.97 }, "geometry": { "type": "Polygon", "coordinates": [ [ [ -76.945898422934647, -12.078333929507078 ], [ -76.945898497443423, -12.078332183698903 ], [ -76.945898745465954, -12.078330453484737 ], [ -76.94589916461365, -12.078328755527526 ], [ -76.945899750849875, -12.078327106179501 ], [ -76.945900498528857, -12.078325521324803 ], [ -76.945901400450055, -12.078324016226434 ], [ -76.945902447927452, -12.0783226053793 ], [ -76.945903630873275, -12.078321302370661 ], [ -76.945904937895094, -12.078320119749179 ], [ -76.945906356405587, -12.078319068904138 ], [ -76.945907872743717, -12.078318159955771 ], [ -76.945909472306326, -12.078317401657738 ], [ -76.945911139688747, -12.078316801312846 ], [ -76.945912858833196, -12.078316364702776 ], [ -76.945914613183348, -12.078316096032278 ], [ -76.945916385843887, -12.078315997888826 ], [ -76.945918159743087, -12.078316071217587 ], [ -76.945919917797355, -12.078316315312373 ], [ -76.945921643075664, -12.078316727822383 ], [ -76.945923318962656, -12.078317304774961 ], [ -76.945924929318622, -12.078318040613716 ], [ -76.945926458634943, -12.078318928252132 ], [ -76.945927892183491, -12.078319959141769 ], [ -76.94592921615839, -12.078321123354579 ], [ -76.945930417809052, -12.078322409678563 ], [ -76.945931485562923, -12.07832380572574 ], [ -76.94593240913693, -12.078325298051388 ], [ -76.945933179636583, -12.078326872283601 ], [ -76.945933789641529, -12.078328513261686 ], [ -76.945934233277072, -12.078330205182104 ], [ -76.945934506270774, -12.078331931750768 ], [ -76.945934605993557, -12.078333676339836 ], [ -76.945934531485022, -12.078335422147982 ], [ -76.945934283462719, -12.078337152362145 ], [ -76.945933864315265, -12.078338850319376 ], [ -76.945933278079238, -12.078340499667448 ], [ -76.945932530400427, -12.078342084522211 ], [ -76.945931628479386, -12.078343589620662 ], [ -76.945930581002102, -12.078345000467886 ], [ -76.945929398056336, -12.078346303476643 ], [ -76.945928091034546, -12.078347486098236 ], [ -76.94592667252401, -12.078348536943395 ], [ -76.945925156185794, -12.078349445891879 ], [ -76.945923556623072, -12.078350204190025 ], [ -76.945921889240495, -12.078350804535019 ], [ -76.94592017009586, -12.078351241145171 ], [ -76.945918415745496, -12.078351509815741 ], [ -76.945916643084743, -12.07835160795924 ], [ -76.945914869185302, -12.078351534630505 ], [ -76.945913111130793, -12.078351290535725 ], [ -76.945911385852241, -12.078350878025695 ], [ -76.945909709965051, -12.078350301073069 ], [ -76.945908099608914, -12.07834956523425 ], [ -76.945906570292436, -12.078348677595761 ], [ -76.945905136743789, -12.078347646706021 ], [ -76.945903812768833, -12.078346482493107 ], [ -76.945902611118157, -12.078345196169003 ], [ -76.945901543364315, -12.078343800121706 ], [ -76.945900619790365, -12.078342307795944 ], [ -76.945899849290853, -12.078340733563618 ], [ -76.945899239286064, -12.078339092585432 ], [ -76.945898795650706, -12.078337400664926 ], [ -76.945898522657203, -12.078335674096193 ], [ -76.945898422934647, -12.078333929507078 ] ] ] } },
{ "type": "Feature", "properties": { "codigo": "T2-R3", "tratamiento": "T2", "repeticion": "R3", "etc_pct": 120, "etiqueta": "120% ETc", "unidad": 12, "color": "#2456b3", "radio_m": 1.98 }, "geometry": { "type": "Polygon", "coordinates": [ [ [ -76.945851645053139, -12.078324495167912 ], [ -76.94585171994045, -12.078322740497724 ], [ -76.945851969222289, -12.07832100150075 ], [ -76.945852390497933, -12.078319294924489 ], [ -76.945852979710267, -12.078317637204195 ], [ -76.945853731184869, -12.078316044304637 ], [ -76.945854637684604, -12.078314531566289 ], [ -76.945855690479377, -12.078313113557641 ], [ -76.945856879430224, -12.078311803934906 ], [ -76.945858193086877, -12.078310615310464 ], [ -76.945859618798124, -12.078309559131423 ], [ -76.94586114283355, -12.078308645569331 ], [ -76.945862750515886, -12.07830788342234 ], [ -76.945864426362277, -12.078307280030286 ], [ -76.9458661542334, -12.078306841204201 ], [ -76.945867917488926, -12.078306571170199 ], [ -76.945869699147721, -12.078306472528858 ], [ -76.945871482051459, -12.078306546230161 ], [ -76.945873249029816, -12.078306791564312 ], [ -76.945874983065792, -12.078307206168601 ], [ -76.9458766674597, -12.078307786050186 ], [ -76.94587828598992, -12.07830852562445 ], [ -76.945879823069106, -12.078309417768946 ], [ -76.94588126389435, -12.078310453891783 ], [ -76.945882594589705, -12.078311624014567 ], [ -76.945883802339864, -12.078312916868372 ], [ -76.945884875513542, -12.078314320002306 ], [ -76.945885803775482, -12.078315819903411 ], [ -76.945886578186006, -12.078317402126828 ], [ -76.945887191287113, -12.078319051434901 ], [ -76.945887637174323, -12.078320751943878 ], [ -76.94588791155347, -12.078322487276933 ], [ -76.945888011782145, -12.078324240721853 ], [ -76.945887936895076, -12.078325995392014 ], [ -76.945887687613492, -12.078327734388987 ], [ -76.945887266338062, -12.078329440965264 ], [ -76.945886677125941, -12.078331098685601 ], [ -76.945885925651524, -12.078332691585224 ], [ -76.94588501915193, -12.078334204323655 ], [ -76.945883966357258, -12.078335622332398 ], [ -76.945882777406482, -12.078336931955244 ], [ -76.945881463749842, -12.078338120579808 ], [ -76.945880038038567, -12.078339176758966 ], [ -76.94587851400307, -12.078340090321175 ], [ -76.945876906320606, -12.078340852468282 ], [ -76.945875230474059, -12.078341455860439 ], [ -76.945873502602737, -12.078341894686607 ], [ -76.945871739346998, -12.078342164720679 ], [ -76.945869957687975, -12.078342263362069 ], [ -76.945868174783996, -12.078342189660795 ], [ -76.945866407805411, -12.078341944326647 ], [ -76.945864673769208, -12.078341529722335 ], [ -76.945862989375073, -12.078340949840706 ], [ -76.945861370844696, -12.078340210266377 ], [ -76.945859833765354, -12.078339318121801 ], [ -76.945858392940011, -12.078338281998869 ], [ -76.945857062244585, -12.078337111875971 ], [ -76.945855854494411, -12.078335819022051 ], [ -76.945854781320747, -12.078334415887999 ], [ -76.945853853058892, -12.078332915986776 ], [ -76.945853078648483, -12.078331333763243 ], [ -76.945852465547546, -12.078329684455069 ], [ -76.945852019660521, -12.078327983946007 ], [ -76.945851745281587, -12.07832624861288 ], [ -76.945851645053139, -12.078324495167912 ] ] ] } },
{ "type": "Feature", "properties": { "codigo": "T1-R2", "tratamiento": "T1", "repeticion": "R2", "etc_pct": 100, "etiqueta": "100% ETc", "unidad": 8, "color": "#2e9e44", "radio_m": 2.03 }, "geometry": { "type": "Polygon", "coordinates": [ [ [ -76.945807707513779, -12.078312862658434 ], [ -76.945807784292484, -12.078311063678356 ], [ -76.945808039869604, -12.078309280767318 ], [ -76.94580847178382, -12.078307531095726 ], [ -76.94580907587553, -12.078305831513866 ], [ -76.945809846327023, -12.078304198389651 ], [ -76.945810775718414, -12.078302647450952 ], [ -76.945811855099151, -12.07830119363415 ], [ -76.945813074074209, -12.078299850940299 ], [ -76.945814420904185, -12.07829863230028 ], [ -76.94581588261839, -12.078297549450246 ], [ -76.945817445139696, -12.078296612818662 ], [ -76.94581909342017, -12.078295831425761 ], [ -76.945820811585989, -12.078295212796819 ], [ -76.945822583090248, -12.078294762889527 ], [ -76.945824390872446, -12.078294486036773 ], [ -76.945826217522608, -12.078294384904805 ], [ -76.945828045449119, -12.078294460467534 ], [ -76.945829857048054, -12.078294711997291 ], [ -76.945831634872718, -12.078295137071709 ], [ -76.945833361801704, -12.078295731597041 ], [ -76.945835021203735, -12.078296489847734 ], [ -76.945836597097852, -12.07829740452139 ], [ -76.945838074307346, -12.078298466809226 ], [ -76.945839438605915, -12.078299666480817 ], [ -76.945840676854573, -12.078300991982678 ], [ -76.945841777128337, -12.078302430549494 ], [ -76.945842728830954, -12.078303968327083 ], [ -76.945843522797006, -12.078305590505815 ], [ -76.945844151380186, -12.078307281463225 ], [ -76.945844608526869, -12.078309024914462 ], [ -76.945844889834476, -12.078310804069144 ], [ -76.945844992593862, -12.078312601793044 ], [ -76.945844915815428, -12.078314400773099 ], [ -76.945844660238535, -12.07831618368413 ], [ -76.94584422832456, -12.078317933355748 ], [ -76.945843624233078, -12.078319632937649 ], [ -76.94584285378177, -12.078321266061938 ], [ -76.945841924390535, -12.07832281700072 ], [ -76.945840845009926, -12.078324270817623 ], [ -76.945839626034925, -12.078325613511588 ], [ -76.945838279204963, -12.078326832151733 ], [ -76.945836817490743, -12.078327915001893 ], [ -76.945835254969353, -12.078328851633602 ], [ -76.945833606688737, -12.078329633026621 ], [ -76.945831888522761, -12.078330251655672 ], [ -76.945830117018289, -12.078330701563052 ], [ -76.945828309235878, -12.078330978415877 ], [ -76.94582648258546, -12.078331079547898 ], [ -76.945824654658708, -12.078331003985198 ], [ -76.945822843059517, -12.078330752455445 ], [ -76.945821065234611, -12.078330327381009 ], [ -76.945819338305412, -12.078329732855627 ], [ -76.945817678903211, -12.078328974604867 ], [ -76.945816103008923, -12.078328059931126 ], [ -76.945814625799315, -12.078326997643183 ], [ -76.945813261500689, -12.07832579797148 ], [ -76.945812023252003, -12.078324472469497 ], [ -76.945810922978268, -12.078323033902549 ], [ -76.94580997127575, -12.07832149612484 ], [ -76.945809177309812, -12.07831987394599 ], [ -76.945808548726802, -12.078318182988475 ], [ -76.945808091580318, -12.078316439537145 ], [ -76.945807810272925, -12.078314660382391 ], [ -76.945807707513779, -12.078312862658434 ] ] ] } },
{ "type": "Feature", "properties": { "codigo": "T4-R1", "tratamiento": "T4", "repeticion": "R1", "etc_pct": 60, "etiqueta": "60% ETc", "unidad": 4, "color": "#d5342a", "radio_m": 2.02 }, "geometry": { "type": "Polygon", "coordinates": [ [ [ -76.945761143708665, -12.078302550066223 ], [ -76.945761220109446, -12.078300759948087 ], [ -76.945761474427897, -12.078298985819849 ], [ -76.945761904214763, -12.078297244767354 ], [ -76.945762505330961, -12.078295553557879 ], [ -76.945763271987403, -12.078293928478699 ], [ -76.945764196800766, -12.078292385180212 ], [ -76.945765270864612, -12.078290938525218 ], [ -76.945766483835087, -12.0782896024458 ], [ -76.945767824030639, -12.078288389809121 ], [ -76.945769278544446, -12.078287312293561 ], [ -76.945770833368755, -12.078286380276166 ], [ -76.945772473529743, -12.078285602732761 ], [ -76.945774183231791, -12.078284987151516 ], [ -76.945775946009505, -12.078284539460814 ], [ -76.945777744886385, -12.078284263972186 ], [ -76.945779562538263, -12.078284163338704 ], [ -76.945781381460179, -12.078284238529536 ], [ -76.945783184134925, -12.078284488820538 ], [ -76.945784953201724, -12.078284911801305 ], [ -76.945786671623537, -12.078285503398272 ], [ -76.945788322851016, -12.078286257914046 ], [ -76.945789890981942, -12.078287168082218 ], [ -76.945791360914342, -12.07828822513738 ], [ -76.945792718491987, -12.078289418899537 ], [ -76.945793950640649, -12.078290737872077 ], [ -76.945795045494066, -12.078292169352588 ], [ -76.945795992508224, -12.078293699555125 ], [ -76.945796782562809, -12.078295313743009 ], [ -76.945797408049202, -12.078296996370733 ], [ -76.945797862943607, -12.078298731233664 ], [ -76.945798142865144, -12.078300501624147 ], [ -76.945798245118013, -12.078302290492324 ], [ -76.945798168717474, -12.078304080610435 ], [ -76.945797914399279, -12.078305854738668 ], [ -76.945797484612655, -12.078307595791186 ], [ -76.945796883496669, -12.078309287000705 ], [ -76.945796116840413, -12.078310912079953 ], [ -76.945795192027191, -12.078312455378525 ], [ -76.945794117963473, -12.078313902033623 ], [ -76.945792904993056, -12.078315238113154 ], [ -76.945791564797531, -12.078316450749954 ], [ -76.945790110283696, -12.078317528265636 ], [ -76.945788555459302, -12.078318460283159 ], [ -76.945786915298186, -12.078319237826681 ], [ -76.945785205595982, -12.078319853408031 ], [ -76.945783442818083, -12.078320301098818 ], [ -76.945781643940975, -12.078320576587522 ], [ -76.945779826288842, -12.078320677221058 ], [ -76.945778007366684, -12.078320602030251 ], [ -76.945776204691697, -12.078320351739253 ], [ -76.945774435624656, -12.078319928758466 ], [ -76.945772717202615, -12.078319337161453 ], [ -76.945771065974952, -12.078318582645615 ], [ -76.94576949784387, -12.078317672477358 ], [ -76.945768027911356, -12.078316615422089 ], [ -76.945766670333654, -12.078315421659818 ], [ -76.945765438184978, -12.078314102687159 ], [ -76.945764343331575, -12.07831267120652 ], [ -76.945763396317517, -12.07831114100386 ], [ -76.945762606263045, -12.078309526815861 ], [ -76.945761980776808, -12.07830784418803 ], [ -76.945761525882602, -12.078306109325007 ], [ -76.945761245961293, -12.078304338934455 ], [ -76.945761143708665, -12.078302550066223 ] ] ] } }
]
}
